<?xml version="1.0" ?>
<gpx xmlns="http://www.topografix.com/GPX/1/1" version="1.1" creator="GeoStructuresBot">
  <wpt lat="48.3027379" lon="16.3247974">
    <name>Polizeiinspektion Klosterneuburg</name>
    <desc>Polizei - OSM</desc>
    <sym>Police</sym>
  </wpt>
  <wpt lat="48.2603366" lon="16.397782">
    <name>Polizeiinspektion Hermann-Bahr-Straße</name>
    <desc>Polizei - OSM</desc>
    <sym>Police</sym>
  </wpt>
  <wpt lat="48.2268302" lon="16.3616079">
    <name>Polizeiinspektion Julius-Tandler-Platz</name>
    <desc>Polizei - OSM</desc>
    <sym>Police</sym>
  </wpt>
  <wpt lat="48.2245351" lon="16.3172112">
    <name>Polizeiinspektion Halirschgasse</name>
    <desc>Polizei - OSM</desc>
    <sym>Police</sym>
  </wpt>
  <wpt lat="48.2138108" lon="16.3185825">
    <name>Polizeiinspektion Wattgasse</name>
    <desc>Polizei - OSM</desc>
    <sym>Police</sym>
  </wpt>
  <wpt lat="48.1949532" lon="16.3712124">
    <name>Polizeiinspektion Taubstummengasse</name>
    <desc>Polizei - OSM</desc>
    <sym>Police</sym>
  </wpt>
  <wpt lat="48.1844501" lon="16.3384946">
    <name>Polizeiinspektion Arndtstraße</name>
    <desc>Polizei - OSM</desc>
    <sym>Police</sym>
  </wpt>
  <wpt lat="48.1896505" lon="16.2773139">
    <name>Polizeiinspektion Preindlgasse</name>
    <desc>Polizei - OSM</desc>
    <sym>Police</sym>
  </wpt>
  <wpt lat="48.2936466" lon="16.4171153">
    <name>Polizeiinspektion Kummergasse 7</name>
    <desc>Polizei - OSM</desc>
    <sym>Police</sym>
  </wpt>
  <wpt lat="48.1825814" lon="16.3287947">
    <name>Polizeiinspektion Hufelandgasse</name>
    <desc>Polizei - OSM</desc>
    <sym>Police</sym>
  </wpt>
  <wpt lat="48.3229126" lon="16.2102895">
    <name>Polizeiinspektion St. Andrä-Wördern</name>
    <desc>Polizei - OSM</desc>
    <sym>Police</sym>
  </wpt>
  <wpt lat="48.2096291" lon="16.3721568">
    <name>Polizeiinspektion Brandstätte</name>
    <desc>Polizei - OSM</desc>
    <sym>Police</sym>
  </wpt>
  <wpt lat="48.2016104" lon="16.3389976">
    <name>Polizeiinspektion Urban-Loritz-Platz</name>
    <desc>Polizei - OSM</desc>
    <sym>Police</sym>
  </wpt>
  <wpt lat="48.221146" lon="16.3410521">
    <name>Polizeiinspektion Martinstraße</name>
    <desc>Polizei - OSM</desc>
    <sym>Police</sym>
  </wpt>
  <wpt lat="48.2172491" lon="16.3683346">
    <name>Polizeiinspektion Deutschmeisterplatz</name>
    <desc>Polizei - OSM</desc>
    <sym>Police</sym>
  </wpt>
  <wpt lat="48.1859197" lon="16.3024572">
    <name>Polizeiinspektion Am Platz</name>
    <desc>Polizei - OSM</desc>
    <sym>Police</sym>
  </wpt>
  <wpt lat="48.1965299" lon="16.3935941">
    <name>Polizeikommissariat Landstraße</name>
    <desc>Polizei - OSM</desc>
    <sym>Police</sym>
  </wpt>
  <wpt lat="48.2150193" lon="16.3640547">
    <name>Polizeiinspektion Schottenring</name>
    <desc>Polizei - OSM</desc>
    <sym>Police</sym>
  </wpt>
  <wpt lat="48.2101305" lon="16.3359478">
    <name>Polizeiinspektion Brunnengasse</name>
    <desc>Polizei - OSM</desc>
    <sym>Police</sym>
  </wpt>
  <wpt lat="48.1943158" lon="16.3442121">
    <name>Polizeiinspektion Stumpergasse</name>
    <desc>Polizei - OSM</desc>
    <sym>Police</sym>
  </wpt>
  <wpt lat="48.2029028" lon="16.3463546">
    <name>Polizeiinspektion Kandlgasse 4</name>
    <desc>Polizei - OSM</desc>
    <sym>Police</sym>
  </wpt>
  <wpt lat="48.2159576" lon="16.355414">
    <name>Polizeiinspektion Otto-Wagner-Platz</name>
    <desc>Polizei - OSM</desc>
    <sym>Police</sym>
  </wpt>
  <wpt lat="48.2730296" lon="16.4052706">
    <name>Polizeiinspektion Trillergasse 6</name>
    <desc>Polizei - OSM</desc>
    <sym>Police</sym>
  </wpt>
  <wpt lat="48.2077584" lon="16.2193643">
    <name>Polizeiinspektion Albert-Schweitzer-Gasse</name>
    <desc>Polizei - OSM</desc>
    <sym>Police</sym>
  </wpt>
  <wpt lat="48.2016976" lon="16.2599092">
    <name>Polizeiinspektion Linzer Straße</name>
    <desc>Polizei - OSM</desc>
    <sym>Police</sym>
  </wpt>
  <wpt lat="48.1984455" lon="16.3205427">
    <name>Polizeiinspektion Wurmsergasse</name>
    <desc>Polizei - OSM</desc>
    <sym>Police</sym>
  </wpt>
  <wpt lat="48.2039882" lon="16.3673603">
    <name>Polizeiinspektion Goethegasse</name>
    <desc>Polizei - OSM</desc>
    <sym>Police</sym>
  </wpt>
  <wpt lat="48.2000933" lon="16.3687463">
    <name>Polizeiinspektion Kärntnertorpassage (Karlsplatz)</name>
    <desc>Polizei - OSM</desc>
    <sym>Police</sym>
  </wpt>
  <wpt lat="48.210514" lon="16.3782126">
    <name>Polizeiinspektion Laurenzerberg</name>
    <desc>Polizei - OSM</desc>
    <sym>Police</sym>
  </wpt>
  <wpt lat="48.1962717" lon="16.404323">
    <name>Polizeiinspektion Fiakerplatz</name>
    <desc>Polizei - OSM</desc>
    <sym>Police</sym>
  </wpt>
  <wpt lat="48.1926668" lon="16.3571336">
    <name>Polizeiinspektion Schönbrunner Straße</name>
    <desc>Polizei - OSM</desc>
    <sym>Police</sym>
  </wpt>
  <wpt lat="48.1882011" lon="16.3578303">
    <name>Polizeiinspektion Viktor-Christ-Gasse 19</name>
    <desc>Polizei - OSM</desc>
    <sym>Police</sym>
  </wpt>
  <wpt lat="48.1970661" lon="16.3531232">
    <name>Polizeiinspektion Kopernikusgasse</name>
    <desc>Polizei - OSM</desc>
    <sym>Police</sym>
  </wpt>
  <wpt lat="48.2019725" lon="16.3550906">
    <name>Polizeiinspektion Stiftgasse</name>
    <desc>Polizei - OSM</desc>
    <sym>Police</sym>
  </wpt>
  <wpt lat="48.2106213" lon="16.3477691">
    <name>Polizeiinspektion Fuhrmannsgasse</name>
    <desc>Polizei - OSM</desc>
    <sym>Police</sym>
  </wpt>
  <wpt lat="48.2236817" lon="16.3565302">
    <name>Polizeiinspektion Boltzmanngasse</name>
    <desc>Polizei - OSM</desc>
    <sym>Police</sym>
  </wpt>
  <wpt lat="48.1505426" lon="16.3829852">
    <name>Polizeiinspektion Ada-Christen-Gasse</name>
    <desc>Polizei - OSM</desc>
    <sym>Police</sym>
  </wpt>
  <wpt lat="48.1638844" lon="16.3828052">
    <name>Polizeiinspektion Favoritenstraße</name>
    <desc>Polizei - OSM</desc>
    <sym>Police</sym>
  </wpt>
  <wpt lat="48.1594888" lon="16.3622918">
    <name>Polizeiinspektion Sibeliusstraße</name>
    <desc>Polizei - OSM</desc>
    <sym>Police</sym>
  </wpt>
  <wpt lat="48.1790402" lon="16.3698964">
    <name>Polizeiinspektion Van-der-Nüll-Gasse</name>
    <desc>Polizei - OSM</desc>
    <sym>Police</sym>
  </wpt>
  <wpt lat="48.1698236" lon="16.3632153">
    <name>Polizeiinspektion Zohmanngasse</name>
    <desc>Polizei - OSM</desc>
    <sym>Police</sym>
  </wpt>
  <wpt lat="48.1599124" lon="16.4643617">
    <name>Polizeiinspektion Kaiser-Ebersdorfer Straße</name>
    <desc>Polizei - OSM</desc>
    <sym>Police</sym>
  </wpt>
  <wpt lat="48.1751419" lon="16.4132812">
    <name>Polizeiinspektion Sedlitzkygasse</name>
    <desc>Polizei - OSM</desc>
    <sym>Police</sym>
  </wpt>
  <wpt lat="48.1608891" lon="16.3260182">
    <name>Polizeiinspektion Am Schöpfwerk</name>
    <desc>Polizei - OSM</desc>
    <sym>Police</sym>
  </wpt>
  <wpt lat="48.1742284" lon="16.3245129">
    <name>Polizeiinspektion Hohenbergstraße</name>
    <desc>Polizei - OSM</desc>
    <sym>Police</sym>
  </wpt>
  <wpt lat="48.1978528" lon="16.3321594">
    <name>Polizeiinspektion Tannengasse</name>
    <desc>Polizei - OSM</desc>
    <sym>Police</sym>
  </wpt>
  <wpt lat="48.1961979" lon="16.3374977">
    <name>Polizeiinspektion Westbahnhof</name>
    <desc>Polizei - OSM</desc>
    <sym>Police</sym>
  </wpt>
  <wpt lat="48.2065283" lon="16.3333694">
    <name>Polizeiinspektion Koppstraße</name>
    <desc>Polizei - OSM</desc>
    <sym>Police</sym>
  </wpt>
  <wpt lat="48.2194992" lon="16.3312899">
    <name>Polizeiinspektion Rötzergasse</name>
    <desc>Polizei - OSM</desc>
    <sym>Police</sym>
  </wpt>
  <wpt lat="48.2274574" lon="16.3342889">
    <name>Polizeiinspektion Schulgasse</name>
    <desc>Polizei - OSM</desc>
    <sym>Police</sym>
  </wpt>
  <wpt lat="48.2450639" lon="16.3434501">
    <name>Polizeiinspektion Billrothstraße</name>
    <desc>Polizei - OSM</desc>
    <sym>Police</sym>
  </wpt>
  <wpt lat="48.2421294" lon="16.3280341">
    <name>Polizeiinspektion Krottenbachstraße</name>
    <desc>Polizei - OSM</desc>
    <sym>Police</sym>
  </wpt>
  <wpt lat="48.2340087" lon="16.3694915">
    <name>Polizeiinspektion Pappenheimgasse</name>
    <desc>Polizei - OSM</desc>
    <sym>Police</sym>
  </wpt>
  <wpt lat="48.2196097" lon="16.3764388">
    <name>Polizeiinspektion Leopoldsgasse 18</name>
    <desc>Polizei - OSM</desc>
    <sym>Police</sym>
  </wpt>
  <wpt lat="48.2135816" lon="16.3851787">
    <name>Polizeiinspektion Tempelgasse</name>
    <desc>Polizei - OSM</desc>
    <sym>Police</sym>
  </wpt>
  <wpt lat="48.1500646" lon="16.3136701">
    <name>Polizeiinspektion Anton-Baumgartner-Straße</name>
    <desc>Polizei - OSM</desc>
    <sym>Police</sym>
  </wpt>
  <wpt lat="48.2532887" lon="16.4199332">
    <name>Polizeiinspektion Donaufelder Straße</name>
    <desc>Polizei - OSM</desc>
    <sym>Police</sym>
  </wpt>
  <wpt lat="48.2738771" lon="16.4470161">
    <name>Polizeiinspektion Kürschnergasse</name>
    <desc>Polizei - OSM</desc>
    <sym>Police</sym>
  </wpt>
  <wpt lat="48.2276346" lon="16.4469741">
    <name>Polizeiinspektion Lange Allee</name>
    <desc>Polizei - OSM</desc>
    <sym>Police</sym>
  </wpt>
  <wpt lat="48.2176819" lon="16.4766986">
    <name>Polizeiinspektion Langobardenstraße</name>
    <desc>Polizei - OSM</desc>
    <sym>Police</sym>
  </wpt>
  <wpt lat="48.2607502" lon="16.4552785">
    <name>Polizeiinspektion Puchgasse</name>
    <desc>Polizei - OSM</desc>
    <sym>Police</sym>
  </wpt>
  <wpt lat="48.2243333" lon="16.5031512">
    <name>Polizeiinspektion Sonnenallee</name>
    <desc>Polizei - OSM</desc>
    <sym>Police</sym>
  </wpt>
  <wpt lat="48.2295471" lon="16.415072">
    <name>Polizeiinspektion Rudolf-Nurejew-Promenade</name>
    <desc>Polizei - OSM</desc>
    <sym>Police</sym>
  </wpt>
  <wpt lat="48.232835" lon="16.1923219">
    <name>Polizeiinspektion Mauerbach</name>
    <desc>Polizei - OSM</desc>
    <sym>Police</sym>
  </wpt>
  <wpt lat="48.2082803" lon="16.3643382">
    <name>Servicezentrum help.gv.at</name>
    <desc>Behörde - OSM</desc>
    <sym>City</sym>
  </wpt>
  <wpt lat="48.2088105" lon="16.1777589">
    <name>Polizeiinspektion Purkersdorf</name>
    <desc>Polizei - OSM</desc>
    <sym>Police</sym>
  </wpt>
  <wpt lat="48.1999343" lon="16.3789132">
    <name>Sicherheitsakademie</name>
    <desc>Behörde - OSM</desc>
    <sym>City</sym>
  </wpt>
  <wpt lat="48.1784886" lon="16.3748553">
    <name>Standesamt Wien Favoriten, 10., 11.Bezirk - MA 26</name>
    <desc>Behörde - OSM</desc>
    <sym>City</sym>
  </wpt>
  <wpt lat="48.1786195" lon="16.3655087">
    <name>Studienbeihilfenbehörde</name>
    <desc>Behörde - OSM</desc>
    <sym>City</sym>
  </wpt>
  <wpt lat="48.2118519" lon="16.3680432">
    <name>Berufsfeuerwehr Wien</name>
    <desc>Behörde - OSM</desc>
    <sym>City</sym>
  </wpt>
  <wpt lat="48.2353781" lon="16.3810293">
    <name>AgrarMarkt Austria</name>
    <desc>Behörde - OSM</desc>
    <sym>City</sym>
  </wpt>
  <wpt lat="48.2333601" lon="16.3839702">
    <name>Österreichisches Patentamt</name>
    <desc>Behörde - OSM</desc>
    <sym>City</sym>
  </wpt>
  <wpt lat="48.209433" lon="16.3828867">
    <name>Bundesministerium für Land- und Forstwirtschaft, Klima- und Umweltschutz, Regionen und Wasserwirtschaft</name>
    <desc>Behörde - OSM</desc>
    <sym>City</sym>
  </wpt>
  <wpt lat="48.210353" lon="16.3831529">
    <name>Bundesministerium für Wirtschaft, Energie und Tourismus</name>
    <desc>Behörde - OSM</desc>
    <sym>City</sym>
  </wpt>
  <wpt lat="48.2103668" lon="16.3860146">
    <name>Bundesministerium für Kunst, Kultur, öffentlichen Dienst und Sport</name>
    <desc>Behörde - OSM</desc>
    <sym>City</sym>
  </wpt>
  <wpt lat="48.2107645" lon="16.3854545">
    <name>Bundesministerium für Innovation, Mobilität und Infrastruktur</name>
    <desc>Behörde - OSM</desc>
    <sym>City</sym>
  </wpt>
  <wpt lat="48.2140372" lon="16.3064567">
    <name>Polizeiinspektion Maroltingergasse 79</name>
    <desc>Polizei - OSM</desc>
    <sym>Police</sym>
  </wpt>
  <wpt lat="48.1282146" lon="16.5507777">
    <name>Autobahnpolizeiinspektion Schwechat</name>
    <desc>Polizei - OSM</desc>
    <sym>Police</sym>
  </wpt>
  <wpt lat="48.2434186" lon="16.379986">
    <name>Polizeiinspektion Vorgartenstraße</name>
    <desc>Polizei - OSM</desc>
    <sym>Police</sym>
  </wpt>
  <wpt lat="48.1897264" lon="16.3688214">
    <name>Wirtschaftskammer Niederösterreich - Büro Wien</name>
    <desc>Behörde - OSM</desc>
    <sym>City</sym>
  </wpt>
  <wpt lat="48.2125318" lon="16.3876194">
    <name>Rechnungshof Österreich</name>
    <desc>Behörde - OSM</desc>
    <sym>City</sym>
  </wpt>
  <wpt lat="48.2011068" lon="16.38757">
    <name>MA 65</name>
    <desc>Behörde - OSM</desc>
    <sym>City</sym>
  </wpt>
  <wpt lat="48.1917282" lon="16.4122988">
    <name>Österreichisches Staatsarchiv</name>
    <desc>Behörde - OSM</desc>
    <sym>City</sym>
  </wpt>
  <wpt lat="48.2599898" lon="16.3669805">
    <name>Polizeiinspektion Nußdorfer Platz</name>
    <desc>Polizei - OSM</desc>
    <sym>Police</sym>
  </wpt>
  <wpt lat="48.2100478" lon="16.3631465">
    <name>Bundesministerium für Bildung, Wissenschaft und Forschung</name>
    <desc>Behörde - OSM</desc>
    <sym>City</sym>
  </wpt>
  <wpt lat="48.2111431" lon="16.3658845">
    <name>Bundesministerium für Wissenschaft und Forschung</name>
    <desc>Behörde - OSM</desc>
    <sym>City</sym>
  </wpt>
  <wpt lat="48.2378444" lon="16.3788793">
    <name>Wiener Umweltschutzabteilung - MA 22</name>
    <desc>Behörde - OSM</desc>
    <sym>City</sym>
  </wpt>
  <wpt lat="48.1852244" lon="16.3328768">
    <name>Polizeiinspektion Storchengasse</name>
    <desc>Polizei - OSM</desc>
    <sym>Police</sym>
  </wpt>
  <wpt lat="48.2375156" lon="16.3792813">
    <name>MA42 Wiener Stadtgärten</name>
    <desc>Behörde - OSM</desc>
    <sym>City</sym>
  </wpt>
  <wpt lat="48.2371013" lon="16.4760171">
    <name>Polizeiinspektion Quadenstraße</name>
    <desc>Polizei - OSM</desc>
    <sym>Police</sym>
  </wpt>
  <wpt lat="48.1755839" lon="16.413856">
    <name>Bezirksgesundheitsamt</name>
    <desc>Behörde - OSM</desc>
    <sym>City</sym>
  </wpt>
  <wpt lat="48.1753943" lon="16.4132739">
    <name>Polizei Bürgerservicestelle</name>
    <desc>Polizei - OSM</desc>
    <sym>Police</sym>
  </wpt>
  <wpt lat="48.1754962" lon="16.4134993">
    <name>Mag Elf</name>
    <desc>Behörde - OSM</desc>
    <sym>City</sym>
  </wpt>
  <wpt lat="48.175532" lon="16.4136146">
    <name>Bürgerdienst Kundenzentrum Simmering</name>
    <desc>Behörde - OSM</desc>
    <sym>City</sym>
  </wpt>
  <wpt lat="48.1753477" lon="16.4131667">
    <name>Polizeikommisariat Simmering</name>
    <desc>Polizei - OSM</desc>
    <sym>Police</sym>
  </wpt>
  <wpt lat="48.1816025" lon="16.4079071">
    <name>Wiener Wohnen</name>
    <desc>Behörde - OSM</desc>
    <sym>City</sym>
  </wpt>
  <wpt lat="48.2090607" lon="16.3831148">
    <name>Bundesministerium für Arbeit, Soziales, Gesundheit, Pflege und Konsumentenschutz</name>
    <desc>Behörde - OSM</desc>
    <sym>City</sym>
  </wpt>
  <wpt lat="48.2068692" lon="16.3750067">
    <name>Volksanwaltschaft</name>
    <desc>Behörde - OSM</desc>
    <sym>City</sym>
  </wpt>
  <wpt lat="48.2380049" lon="16.3793761">
    <name>MA40 - Sozialamt</name>
    <desc>Behörde - OSM</desc>
    <sym>City</sym>
  </wpt>
  <wpt lat="48.2330276" lon="16.3710639">
    <name>MBA Bezirksamt Brigittenau</name>
    <desc>Behörde - OSM</desc>
    <sym>City</sym>
  </wpt>
  <wpt lat="48.1787585" lon="16.3740102">
    <name>Magistratisches Bezirksamt, 10.Bezirk (1100 Wien)</name>
    <desc>Behörde - OSM</desc>
    <sym>City</sym>
  </wpt>
  <wpt lat="48.1839423" lon="16.3772906">
    <name>Polizeiinspektion Am Hauptbahnhof</name>
    <desc>Polizei - OSM</desc>
    <sym>Police</sym>
  </wpt>
  <wpt lat="48.1857705" lon="16.4194688">
    <name>Wohnberatung Wien</name>
    <desc>Behörde - OSM</desc>
    <sym>City</sym>
  </wpt>
  <wpt lat="48.1830983" lon="16.3772858">
    <name>Bundesfinanzakademie</name>
    <desc>Behörde - OSM</desc>
    <sym>City</sym>
  </wpt>
  <wpt lat="48.2062915" lon="16.3569732">
    <name>Generalprokuratur</name>
    <desc>Behörde - OSM</desc>
    <sym>City</sym>
  </wpt>
  <wpt lat="48.2062107" lon="16.3571272">
    <name>Oberstaatsanwaltschaft Wien</name>
    <desc>Behörde - OSM</desc>
    <sym>City</sym>
  </wpt>
  <wpt lat="48.2240476" lon="16.3976288">
    <name>MA 40 - Sozialzentrum Walcherstraße (für die Bezirke 1-9 und 14) (obdachlos - Jahrgang mit Endziffer 0, 1 und 5)</name>
    <desc>Behörde - OSM</desc>
    <sym>City</sym>
  </wpt>
  <wpt lat="48.1241304" lon="16.2936989">
    <name>KFZ Zulassungsstelle</name>
    <desc>Behörde - OSM</desc>
    <sym>City</sym>
  </wpt>
  <wpt lat="48.187712" lon="16.3362444">
    <name>MA 50 - Wohnungskommission</name>
    <desc>Behörde - OSM</desc>
    <sym>City</sym>
  </wpt>
  <wpt lat="48.1876379" lon="16.3367073">
    <name>Fonds Soziales Wien</name>
    <desc>Behörde - OSM</desc>
    <sym>City</sym>
  </wpt>
  <wpt lat="48.1878577" lon="16.3367967">
    <name>wieder wohnen - Fonds Soziales Wien</name>
    <desc>Behörde - OSM</desc>
    <sym>City</sym>
  </wpt>
  <wpt lat="48.1881135" lon="16.3372758">
    <name>Pflege- und Betreuungsdienste - Fonds Soziales Wien</name>
    <desc>Behörde - OSM</desc>
    <sym>City</sym>
  </wpt>
  <wpt lat="48.1987375" lon="16.3657509">
    <name>OBS</name>
    <desc>Behörde - OSM</desc>
    <sym>City</sym>
  </wpt>
  <wpt lat="48.2199113" lon="16.3630019">
    <name>Bildungszentrum Sicherheit</name>
    <desc>Behörde - OSM</desc>
    <sym>City</sym>
  </wpt>
  <wpt lat="48.2000699" lon="16.4029361">
    <name>Verkehrsamt Wien</name>
    <desc>Polizei - OSM</desc>
    <sym>Police</sym>
  </wpt>
  <wpt lat="48.2186247" lon="16.3686237">
    <name>Bundesministerium für Landesverteidigung</name>
    <desc>Behörde - OSM</desc>
    <sym>City</sym>
  </wpt>
  <wpt lat="48.2317256" lon="16.3651038">
    <name>Montanbehörde Ost</name>
    <desc>Behörde - OSM</desc>
    <sym>City</sym>
  </wpt>
  <wpt lat="48.1192381" lon="16.562818">
    <name>Zollstelle Flughafen Wien Reisendenabfertigung</name>
    <desc>Behörde - OSM</desc>
    <sym>City</sym>
  </wpt>
  <wpt lat="48.1763661" lon="16.2841821">
    <name>Polizeiinspektion Lainzer Straße</name>
    <desc>Polizei - OSM</desc>
    <sym>Police</sym>
  </wpt>
  <wpt lat="48.1804691" lon="16.3330837">
    <name>Marktaufsicht</name>
    <desc>Behörde - OSM</desc>
    <sym>City</sym>
  </wpt>
  <wpt lat="48.1946253" lon="16.3825481">
    <name>European Patent Office - Vienna</name>
    <desc>Behörde - OSM</desc>
    <sym>City</sym>
  </wpt>
  <wpt lat="48.2339406" lon="16.4159904">
    <name>International Atomic Energy Agency</name>
    <desc>Behörde - OSM</desc>
    <sym>City</sym>
  </wpt>
  <wpt lat="48.234548" lon="16.4179189">
    <name>United Nations Industrial Development Organization</name>
    <desc>Behörde - OSM</desc>
    <sym>City</sym>
  </wpt>
  <wpt lat="48.2350482" lon="16.4188738">
    <name>United Nations Office in Vienna</name>
    <desc>Behörde - OSM</desc>
    <sym>City</sym>
  </wpt>
  <wpt lat="48.2030677" lon="16.3312559">
    <name>Basis.Kultur.Wien</name>
    <desc>Behörde - OSM</desc>
    <sym>City</sym>
  </wpt>
  <wpt lat="48.2892691" lon="16.390868">
    <name>Polizeiinspektion Ziegelofenweg 25</name>
    <desc>Polizei - OSM</desc>
    <sym>Police</sym>
  </wpt>
  <wpt lat="48.1500009" lon="16.3341316">
    <name>Polizeiinspektion Purkytgasse</name>
    <desc>Polizei - OSM</desc>
    <sym>Police</sym>
  </wpt>
  <wpt lat="48.2434604" lon="16.3578463">
    <name>Stadtgartenamt</name>
    <desc>Behörde - OSM</desc>
    <sym>City</sym>
  </wpt>
  <wpt lat="48.2220309" lon="16.3180666">
    <name>MA 28 - Straßenverwaltung und Straßenbau</name>
    <desc>Behörde - OSM</desc>
    <sym>City</sym>
  </wpt>
  <wpt lat="48.1355666" lon="16.3109872">
    <name>MA 40 - Sozialzentrum Lemböckgasse (für die Bezirke 10, 13 und 23)</name>
    <desc>Behörde - OSM</desc>
    <sym>City</sym>
  </wpt>
  <wpt lat="48.1876548" lon="16.3226979">
    <name>Unbekannt</name>
    <desc>Behörde - OSM</desc>
    <sym>City</sym>
  </wpt>
  <wpt lat="48.1360487" lon="16.1947">
    <name>Polizeiinspektion Breitenfurt bei Wien</name>
    <desc>Polizei - OSM</desc>
    <sym>Police</sym>
  </wpt>
  <wpt lat="48.1984959" lon="16.3027329">
    <name>Polizeiinspektion Leyserstraße</name>
    <desc>Polizei - OSM</desc>
    <sym>Police</sym>
  </wpt>
  <wpt lat="48.2459699" lon="16.34329">
    <name>Bezirksvorstehung Döbling</name>
    <desc>Behörde - OSM</desc>
    <sym>City</sym>
  </wpt>
  <wpt lat="48.1810615" lon="16.3541914">
    <name>Zentrales Fundservice der Stadt Wien</name>
    <desc>Behörde - OSM</desc>
    <sym>City</sym>
  </wpt>
  <wpt lat="48.1948852" lon="16.3825681">
    <name>FRA</name>
    <desc>Behörde - OSM</desc>
    <sym>City</sym>
  </wpt>
  <wpt lat="48.2107027" lon="16.3565369">
    <name>Stadtkasse Stadthauptkasse</name>
    <desc>Behörde - OSM</desc>
    <sym>City</sym>
  </wpt>
  <wpt lat="48.2132663" lon="16.3360622">
    <name>Marktamt</name>
    <desc>Behörde - OSM</desc>
    <sym>City</sym>
  </wpt>
  <wpt lat="48.2025977" lon="16.3768073">
    <name>Arbeitsinspektorat f d 1. Aufsichtsbezirk zuständig f d 1.2. 3. u 20. Bezirk</name>
    <desc>Behörde - OSM</desc>
    <sym>City</sym>
  </wpt>
  <wpt lat="48.1973216" lon="16.3879237">
    <name>Datenschutzbehörde</name>
    <desc>Behörde - OSM</desc>
    <sym>City</sym>
  </wpt>
  <wpt lat="48.235762" lon="16.4161304">
    <name>IAEA Support Services</name>
    <desc>Behörde - OSM</desc>
    <sym>City</sym>
  </wpt>
  <wpt lat="48.1841414" lon="16.4131103">
    <name>Bundesamt für Fremdenwesen und Asyl - Direktion</name>
    <desc>Behörde - OSM</desc>
    <sym>City</sym>
  </wpt>
  <wpt lat="48.1839203" lon="16.4131766">
    <name>Bundesagentur für Betreuungs- und Unterstützungsleistungen GmbH</name>
    <desc>Behörde - OSM</desc>
    <sym>City</sym>
  </wpt>
  <wpt lat="48.1868732" lon="16.3787664">
    <name>Kammer der Steuerberater und Wirtschaftsprüfer</name>
    <desc>Behörde - OSM</desc>
    <sym>City</sym>
  </wpt>
  <wpt lat="48.2070422" lon="16.3658699">
    <name>Bundesdenkmalamt</name>
    <desc>Behörde - OSM</desc>
    <sym>City</sym>
  </wpt>
  <wpt lat="48.2232929" lon="16.3992575">
    <name>Bundesbeschaffung GmbH</name>
    <desc>Behörde - OSM</desc>
    <sym>City</sym>
  </wpt>
  <wpt lat="48.1330613" lon="16.3037673">
    <name>Bekleidungswirtschaftsfonds der Exekutive</name>
    <desc>Behörde - OSM</desc>
    <sym>City</sym>
  </wpt>
  <wpt lat="48.2089954" lon="16.3659159">
    <name>Bundeswarnzentrale</name>
    <desc>Behörde - OSM</desc>
    <sym>City</sym>
  </wpt>
  <wpt lat="48.1178489" lon="16.2663813">
    <name>Polizeiinspektion Perchtoldsdorf</name>
    <desc>Polizei - OSM</desc>
    <sym>Police</sym>
  </wpt>
  <wpt lat="48.1420451" lon="16.4741855">
    <name>Polizeiinspektion Schwechat Wiener Straße</name>
    <desc>Polizei - OSM</desc>
    <sym>Police</sym>
  </wpt>
  <wpt lat="48.1419084" lon="16.4743164">
    <name>Polizeikommissariat Schwechat</name>
    <desc>Polizei - OSM</desc>
    <sym>Police</sym>
  </wpt>
  <wpt lat="48.2335838" lon="16.4171899">
    <name>United Nations Office for Outer Space Affairs</name>
    <desc>Behörde - OSM</desc>
    <sym>City</sym>
  </wpt>
  <wpt lat="48.2093768" lon="16.3270197">
    <name>Magistratisches Bezirksamt für den 16. Bezirk</name>
    <desc>Behörde - OSM</desc>
    <sym>City</sym>
  </wpt>
  <wpt lat="48.2057698" lon="16.3557724">
    <name>Bundesministerium für Justiz</name>
    <desc>Behörde - OSM</desc>
    <sym>City</sym>
  </wpt>
  <wpt lat="48.1339689" lon="16.3637803">
    <name>Zollstelle Wien/Post</name>
    <desc>Behörde - OSM</desc>
    <sym>City</sym>
  </wpt>
  <wpt lat="48.1830804" lon="16.4583899">
    <name>Zollstelle Hafen Wien</name>
    <desc>Behörde - OSM</desc>
    <sym>City</sym>
  </wpt>
  <wpt lat="48.2088756" lon="16.3848263">
    <name>Zollstelle Wien Außenstelle</name>
    <desc>Behörde - OSM</desc>
    <sym>City</sym>
  </wpt>
  <wpt lat="48.1767705" lon="16.401981">
    <name>Zollstelle Wien</name>
    <desc>Behörde - OSM</desc>
    <sym>City</sym>
  </wpt>
  <wpt lat="48.1233812" lon="16.5530223">
    <name>Zollstelle Flughafen Wien Güterabfertigung</name>
    <desc>Behörde - OSM</desc>
    <sym>City</sym>
  </wpt>
  <wpt lat="48.1224717" lon="16.5649313">
    <name>Zollstelle Flughafen Wien</name>
    <desc>Behörde - OSM</desc>
    <sym>City</sym>
  </wpt>
  <wpt lat="48.2101282" lon="16.3649867">
    <name>BH Tulln Außenstelle Herrengasse</name>
    <desc>Behörde - OSM</desc>
    <sym>City</sym>
  </wpt>
  <wpt lat="48.2040149" lon="16.3885609">
    <name>Österreichischer Integrations Fonds</name>
    <desc>Behörde - OSM</desc>
    <sym>City</sym>
  </wpt>
  <wpt lat="48.1929666" lon="16.412242">
    <name>Kindergärten Wien - MA 10</name>
    <desc>Behörde - OSM</desc>
    <sym>City</sym>
  </wpt>
  <wpt lat="48.1723046" lon="16.3800337">
    <name>Die Agenda Favoriten</name>
    <desc>Behörde - OSM</desc>
    <sym>City</sym>
  </wpt>
  <wpt lat="48.1816054" lon="16.3790648">
    <name>Mag elf</name>
    <desc>Behörde - OSM</desc>
    <sym>City</sym>
  </wpt>
  <wpt lat="48.2173311" lon="16.365896">
    <name>Landesverkehrsabteilung Wien</name>
    <desc>Polizei - OSM</desc>
    <sym>Police</sym>
  </wpt>
  <wpt lat="48.2130259" lon="16.3665139">
    <name>Bundesministerium für Kunst, Kultur, öffentlichen Dienst und Sport: Sektion III – Öffentlicher Dienst und Verwaltungsinnovation</name>
    <desc>Behörde - OSM</desc>
    <sym>City</sym>
  </wpt>
  <wpt lat="48.2337904" lon="16.3827962">
    <name>Polizeiinspektion Dresdner Straße</name>
    <desc>Polizei - OSM</desc>
    <sym>Police</sym>
  </wpt>
  <wpt lat="48.2081387" lon="16.357828">
    <name>Bundesrat</name>
    <desc>Behörde - OSM</desc>
    <sym>City</sym>
  </wpt>
  <wpt lat="48.2075778" lon="16.3582646">
    <name>Nationalrat</name>
    <desc>Behörde - OSM</desc>
    <sym>City</sym>
  </wpt>
  <wpt lat="48.2065346" lon="16.3651416">
    <name>Kongresszentrum Hofburg</name>
    <desc>Behörde - OSM</desc>
    <sym>City</sym>
  </wpt>
  <wpt lat="48.1729695" lon="16.3227951">
    <name>Flugpolizei</name>
    <desc>Polizei - OSM</desc>
    <sym>Police</sym>
  </wpt>
  <wpt lat="48.1994596" lon="16.379055">
    <name>Sicherheitsakademie</name>
    <desc>Polizei - OSM</desc>
    <sym>Police</sym>
  </wpt>
  <wpt lat="48.1733068" lon="16.3090083">
    <name>Kommando Militärpolizei</name>
    <desc>Polizei - OSM</desc>
    <sym>Police</sym>
  </wpt>
  <wpt lat="48.2210527" lon="16.3926074">
    <name>Wirtschaftskammer Wien</name>
    <desc>Behörde - OSM</desc>
    <sym>City</sym>
  </wpt>
  <wpt lat="48.2228373" lon="16.3963066">
    <name>Gleichbehandlungsanwaltschaft</name>
    <desc>Behörde - OSM</desc>
    <sym>City</sym>
  </wpt>
  <wpt lat="48.2177276" lon="16.3653684">
    <name>Wega Spezialpolizei</name>
    <desc>Polizei - OSM</desc>
    <sym>Police</sym>
  </wpt>
  <wpt lat="48.2168826" lon="16.3662484">
    <name>Bereitschaftspolizei</name>
    <desc>Polizei - OSM</desc>
    <sym>Police</sym>
  </wpt>
  <wpt lat="48.1765715" lon="16.376053">
    <name>Viktor-Adler Markt amt</name>
    <desc>Behörde - OSM</desc>
    <sym>City</sym>
  </wpt>
  <wpt lat="48.2367874" lon="16.3502017">
    <name>Wiener Wasser Außendienststelle</name>
    <desc>Behörde - OSM</desc>
    <sym>City</sym>
  </wpt>
  <wpt lat="48.1208863" lon="16.5606208">
    <name>Polizeistation</name>
    <desc>Polizei - OSM</desc>
    <sym>Police</sym>
  </wpt>
  <wpt lat="48.2265293" lon="16.3884345">
    <name>Stadtteilmanagement Nordbahnhof / Nordwestbahnhof</name>
    <desc>Behörde - OSM</desc>
    <sym>City</sym>
  </wpt>
  <wpt lat="48.1400056" lon="16.3545262">
    <name>Österreichische Staatsdruckerei</name>
    <desc>Behörde - OSM</desc>
    <sym>City</sym>
  </wpt>
  <wpt lat="48.1976212" lon="16.349827">
    <name>Rundfunk und Telekom Regulierungs-GmbH</name>
    <desc>Behörde - OSM</desc>
    <sym>City</sym>
  </wpt>
  <wpt lat="48.2095954" lon="16.381952">
    <name>Parlamentsdirektion</name>
    <desc>Behörde - OSM</desc>
    <sym>City</sym>
  </wpt>
  <wpt lat="48.1222801" lon="16.5625039">
    <name>Stadtpolizeikommando Schwechat</name>
    <desc>Polizei - OSM</desc>
    <sym>Police</sym>
  </wpt>
  <wpt lat="48.1983453" lon="16.4016709">
    <name>Kinder- und Jugendhilfe, MA11</name>
    <desc>Behörde - OSM</desc>
    <sym>City</sym>
  </wpt>
  <wpt lat="48.2140941" lon="16.3708319">
    <name>E-Control</name>
    <desc>Behörde - OSM</desc>
    <sym>City</sym>
  </wpt>
  <wpt lat="48.1836807" lon="16.3777271">
    <name>Nationale Anti-Doping Agentur Austria</name>
    <desc>Behörde - OSM</desc>
    <sym>City</sym>
  </wpt>
  <wpt lat="48.1855247" lon="16.3838818">
    <name>Artothek des Bundes</name>
    <desc>Behörde - OSM</desc>
    <sym>City</sym>
  </wpt>
  <wpt lat="48.2125665" lon="16.3822635">
    <name>Bundesstelle für die Positivprädikatisierung von Computer- und Konsolenspielen</name>
    <desc>Behörde - OSM</desc>
    <sym>City</sym>
  </wpt>
  <wpt lat="48.2068052" lon="16.3752123">
    <name>Finanzprokuratur</name>
    <desc>Behörde - OSM</desc>
    <sym>City</sym>
  </wpt>
  <wpt lat="48.1937678" lon="16.4050952">
    <name>Österreichischer Integrationsfonds</name>
    <desc>Behörde - OSM</desc>
    <sym>City</sym>
  </wpt>
  <wpt lat="48.1999295" lon="16.3649039">
    <name>Schienen-Control</name>
    <desc>Behörde - OSM</desc>
    <sym>City</sym>
  </wpt>
  <wpt lat="48.2079451" lon="16.3845151">
    <name>Bundesministerium Land- und Forstwirtschaft, Klima- und Umweltschutz, Regionen und Wasserwirtschaft</name>
    <desc>Behörde - OSM</desc>
    <sym>City</sym>
  </wpt>
  <wpt lat="48.2126054" lon="16.3881467">
    <name>Rechnungshof</name>
    <desc>Behörde - OSM</desc>
    <sym>City</sym>
  </wpt>
  <wpt lat="48.2827731" lon="16.3718192">
    <name>LPD Außenstelle Logistik</name>
    <desc>Polizei - OSM</desc>
    <sym>Police</sym>
  </wpt>
  <wpt lat="48.2164929" lon="16.3783638">
    <name>Mobilitätsagentur Wien</name>
    <desc>Behörde - OSM</desc>
    <sym>City</sym>
  </wpt>
  <wpt lat="48.1844195" lon="16.4064082">
    <name>MA 39 - Prüf-, Inspektions- und Zertifizierungsstelle der Stadt Wien</name>
    <desc>Behörde - OSM</desc>
    <sym>City</sym>
  </wpt>
  <wpt lat="48.1840802" lon="16.4068115">
    <name>Magistratsabteilung 6 - Buchhaltungsabteilung 32 - Strafen</name>
    <desc>Behörde - OSM</desc>
    <sym>City</sym>
  </wpt>
  <wpt lat="48.2146313" lon="16.3120356">
    <name>Wiener Kinder und Jugendhilfe</name>
    <desc>Behörde - OSM</desc>
    <sym>City</sym>
  </wpt>
  <wpt lat="48.1810972" lon="16.3319846">
    <name>Magistratsabteilung 46</name>
    <desc>Behörde - OSM</desc>
    <sym>City</sym>
  </wpt>
  <wpt lat="48.1808473" lon="16.374616">
    <name>Polizeiinspektion Keplergasse (Ersatzquartier Columbusgasse)</name>
    <desc>Polizei - OSM</desc>
    <sym>Police</sym>
  </wpt>
  <wpt lat="48.2052221" lon="16.3707493">
    <name>Niederösterreichische Landarbeiterkammer</name>
    <desc>Behörde - OSM</desc>
    <sym>City</sym>
  </wpt>
  <wpt lat="48.2124993" lon="16.3822156">
    <name>Bundeskanzleramt</name>
    <desc>Behörde - OSM</desc>
    <sym>City</sym>
  </wpt>
  <wpt lat="48.2067077" lon="16.3783708">
    <name>Bundesministerium für Land- und Forstwirtschaft, Klima- und Umweltschutz, Regionen und Wasserwirtschaft</name>
    <desc>Behörde - OSM</desc>
    <sym>City</sym>
  </wpt>
  <wpt lat="48.2322822" lon="16.3852058">
    <name>MA 35 - Einwanderung und Staatsbürgerschaft</name>
    <desc>Behörde - OSM</desc>
    <sym>City</sym>
  </wpt>
  <wpt lat="48.233124" lon="16.3844743">
    <name>MA 35 - Staatsbürgerschaftsevidenz</name>
    <desc>Behörde - OSM</desc>
    <sym>City</sym>
  </wpt>
  <wpt lat="48.2030162" lon="16.3626141">
    <name>Bundesamt für Soziales und Behindertenwesen - Sozialministeriumservice</name>
    <desc>Behörde - OSM</desc>
    <sym>City</sym>
  </wpt>
  <wpt lat="48.217399" lon="16.3682545">
    <name>POLIZEI</name>
    <desc>Polizei - OSM</desc>
    <sym>Police</sym>
  </wpt>
  <wpt lat="48.1343939" lon="16.3102632">
    <name>AMS Lemböckgasse</name>
    <desc>Behörde - OSM</desc>
    <sym>City</sym>
  </wpt>
  <wpt lat="48.2365654" lon="16.3367758">
    <name>Rektorat</name>
    <desc>Behörde - OSM</desc>
    <sym>City</sym>
  </wpt>
  <wpt lat="48.2093785" lon="16.3631155">
    <name>Bundesministerium Frauen, Wissenschaft und Forschung</name>
    <desc>Behörde - OSM</desc>
    <sym>City</sym>
  </wpt>
  <wpt lat="48.2089476" lon="16.3656927">
    <name>Bundesministerium für Inneres</name>
    <desc>Behörde - OSM</desc>
    <sym>City</sym>
  </wpt>
  <wpt lat="48.2227941" lon="16.3858648">
    <name>Marktamt</name>
    <desc>Behörde - OSM</desc>
    <sym>City</sym>
  </wpt>
  <wpt lat="48.1811964" lon="16.4455514">
    <name>Wiener Landesfahrzeugprüfstelle</name>
    <desc>Behörde - OSM</desc>
    <sym>City</sym>
  </wpt>
  <wpt lat="48.1920244" lon="16.305287">
    <name>AMS</name>
    <desc>Behörde - OSM</desc>
    <sym>City</sym>
  </wpt>
  <wpt lat="48.1653921" lon="16.3888993">
    <name>KFZ Zulassungsstelle</name>
    <desc>Behörde - OSM</desc>
    <sym>City</sym>
  </wpt>
  <wpt lat="48.1917983" lon="16.2761757">
    <name>Startplatz Ober St. Veit</name>
    <desc>Behörde - OSM</desc>
    <sym>City</sym>
  </wpt>
  <wpt lat="48.2228226" lon="16.3745341">
    <name>Stadtarchäologie Wien</name>
    <desc>Behörde - OSM</desc>
    <sym>City</sym>
  </wpt>
  <wpt lat="48.2339973" lon="16.3577226">
    <name>Bundeskriminalamt</name>
    <desc>Polizei - OSM</desc>
    <sym>Police</sym>
  </wpt>
  <wpt lat="48.2229133" lon="16.3567698">
    <name>Botschaft der Vereinigten Staaten von Amerika</name>
    <desc>Behörde - OSM</desc>
    <sym>City</sym>
  </wpt>
  <wpt lat="48.178267" lon="16.3026267">
    <name>Bundesamt für Wald</name>
    <desc>Behörde - OSM</desc>
    <sym>City</sym>
  </wpt>
  <wpt lat="48.2595697" lon="16.369829">
    <name>MA 45 Wiener Gewässer</name>
    <desc>Behörde - OSM</desc>
    <sym>City</sym>
  </wpt>
  <wpt lat="48.1985765" lon="16.3727848">
    <name>Unbekannt</name>
    <desc>Behörde - OSM</desc>
    <sym>City</sym>
  </wpt>
  <wpt lat="48.1658245" lon="16.4244654">
    <name>Polizeiinspektion Simmeringer Hauptstraße</name>
    <desc>Polizei - OSM</desc>
    <sym>Police</sym>
  </wpt>
  <wpt lat="48.2403432" lon="16.3536968">
    <name>Unbekannt</name>
    <desc>Behörde - OSM</desc>
    <sym>City</sym>
  </wpt>
  <wpt lat="48.2096617" lon="16.3860801">
    <name>Bundesministerium für Finanzen</name>
    <desc>Behörde - OSM</desc>
    <sym>City</sym>
  </wpt>
  <wpt lat="48.2228221" lon="16.4096811">
    <name>Wasserpolizei Wien - Handelskai</name>
    <desc>Polizei - OSM</desc>
    <sym>Police</sym>
  </wpt>
  <wpt lat="48.3026804" lon="16.5675178">
    <name>Polizeiinspektion Deutsch-Wagram</name>
    <desc>Polizei - OSM</desc>
    <sym>Police</sym>
  </wpt>
  <wpt lat="48.21833" lon="16.41005">
    <name>Unbekannt</name>
    <desc>Behörde - OSM</desc>
    <sym>City</sym>
  </wpt>
  <wpt lat="48.2175215" lon="16.4124829">
    <name>Unbekannt</name>
    <desc>Behörde - OSM</desc>
    <sym>City</sym>
  </wpt>
  <wpt lat="48.2169121" lon="16.4133042">
    <name>Unbekannt</name>
    <desc>Behörde - OSM</desc>
    <sym>City</sym>
  </wpt>
  <wpt lat="48.2169006" lon="16.4117934">
    <name>Unbekannt</name>
    <desc>Behörde - OSM</desc>
    <sym>City</sym>
  </wpt>
  <wpt lat="48.2436497" lon="16.4362286">
    <name>Polizeiinspektion Wagramer Straße</name>
    <desc>Polizei - OSM</desc>
    <sym>Police</sym>
  </wpt>
  <wpt lat="48.111289" lon="16.2847725">
    <name>Polizeiinspektion Brunn am Gebirge</name>
    <desc>Polizei - OSM</desc>
    <sym>Police</sym>
  </wpt>
  <wpt lat="48.1914647" lon="16.3616311">
    <name>Amt für Rüstung und Wehrtechnik ZTPD</name>
    <desc>Behörde - OSM</desc>
    <sym>City</sym>
  </wpt>
  <wpt lat="48.307513" lon="16.3590632">
    <name>Polizeiinspektion Langenzersdorf</name>
    <desc>Polizei - OSM</desc>
    <sym>Police</sym>
  </wpt>
  <wpt lat="48.1788824" lon="16.3741456">
    <name>Unbekannt</name>
    <desc>Behörde - OSM</desc>
    <sym>City</sym>
  </wpt>
  <wpt lat="48.1785309" lon="16.374151">
    <name>Unbekannt</name>
    <desc>Behörde - OSM</desc>
    <sym>City</sym>
  </wpt>
  <wpt lat="48.2022628" lon="16.38006">
    <name>Unbekannt</name>
    <desc>Behörde - OSM</desc>
    <sym>City</sym>
  </wpt>
  <wpt lat="48.2047997" lon="16.3004735">
    <name>Unbekannt</name>
    <desc>Behörde - OSM</desc>
    <sym>City</sym>
  </wpt>
  <wpt lat="48.2113169" lon="16.3410769">
    <name>Unbekannt</name>
    <desc>Behörde - OSM</desc>
    <sym>City</sym>
  </wpt>
  <wpt lat="48.2135479" lon="16.3406959">
    <name>Polizeiinspektion Hernalser Gürtel 6-12</name>
    <desc>Polizei - OSM</desc>
    <sym>Police</sym>
  </wpt>
  <wpt lat="48.2132974" lon="16.3405038">
    <name>Polizeiinspektion Hernalser Gürtel 6-12</name>
    <desc>Polizei - OSM</desc>
    <sym>Police</sym>
  </wpt>
  <wpt lat="48.2188313" lon="16.3728707">
    <name>Bundesamt für Eich- und Vermessungswesen</name>
    <desc>Behörde - OSM</desc>
    <sym>City</sym>
  </wpt>
  <wpt lat="48.1754848" lon="16.4137987">
    <name>Amtshaus Simmering</name>
    <desc>Behörde - OSM</desc>
    <sym>City</sym>
  </wpt>
  <wpt lat="48.3027774" lon="16.3247001">
    <name>Unbekannt</name>
    <desc>Behörde - OSM</desc>
    <sym>City</sym>
  </wpt>
  <wpt lat="48.299053" lon="16.3329411">
    <name>Wirtschaftshof</name>
    <desc>Behörde - OSM</desc>
    <sym>City</sym>
  </wpt>
  <wpt lat="48.208607" lon="16.3809338">
    <name>Unbekannt</name>
    <desc>Behörde - OSM</desc>
    <sym>City</sym>
  </wpt>
  <wpt lat="48.2066683" lon="16.3783984">
    <name>Unbekannt</name>
    <desc>Behörde - OSM</desc>
    <sym>City</sym>
  </wpt>
  <wpt lat="48.2057968" lon="16.3730874">
    <name>Bundesministerium für Finanzen</name>
    <desc>Behörde - OSM</desc>
    <sym>City</sym>
  </wpt>
  <wpt lat="48.2176073" lon="16.405375">
    <name>Polizeiinspektion Ausstellungsstraße</name>
    <desc>Polizei - OSM</desc>
    <sym>Police</sym>
  </wpt>
  <wpt lat="48.2227947" lon="16.385865">
    <name>Unbekannt</name>
    <desc>Behörde - OSM</desc>
    <sym>City</sym>
  </wpt>
  <wpt lat="48.1550231" lon="16.3396526">
    <name>Forstamt</name>
    <desc>Behörde - OSM</desc>
    <sym>City</sym>
  </wpt>
  <wpt lat="48.234806" lon="16.3437488">
    <name>Botschaft der Sozialistischen Republik Vietnam</name>
    <desc>Behörde - OSM</desc>
    <sym>City</sym>
  </wpt>
  <wpt lat="48.2358424" lon="16.3424545">
    <name>Unbekannt</name>
    <desc>Behörde - OSM</desc>
    <sym>City</sym>
  </wpt>
  <wpt lat="48.2318042" lon="16.3438147">
    <name>Unbekannt</name>
    <desc>Behörde - OSM</desc>
    <sym>City</sym>
  </wpt>
  <wpt lat="48.2053575" lon="16.3906614">
    <name>Unbekannt</name>
    <desc>Behörde - OSM</desc>
    <sym>City</sym>
  </wpt>
  <wpt lat="48.183621" lon="16.3186381">
    <name>Unbekannt</name>
    <desc>Behörde - OSM</desc>
    <sym>City</sym>
  </wpt>
  <wpt lat="48.1833614" lon="16.3185164">
    <name>Unbekannt</name>
    <desc>Behörde - OSM</desc>
    <sym>City</sym>
  </wpt>
  <wpt lat="48.2000355" lon="16.3687128">
    <name>Unbekannt</name>
    <desc>Behörde - OSM</desc>
    <sym>City</sym>
  </wpt>
  <wpt lat="48.1354046" lon="16.2811333">
    <name>Polizeikommissariat Liesing</name>
    <desc>Polizei - OSM</desc>
    <sym>Police</sym>
  </wpt>
  <wpt lat="48.143789" lon="16.4746964">
    <name>Wirtschaftskammer Niederösterreich - Außenstelle Schwechat</name>
    <desc>Behörde - OSM</desc>
    <sym>City</sym>
  </wpt>
  <wpt lat="48.1949225" lon="16.3761834">
    <name>AK Wien</name>
    <desc>Behörde - OSM</desc>
    <sym>City</sym>
  </wpt>
  <wpt lat="48.1942144" lon="16.3770385">
    <name>Palais Rothschild</name>
    <desc>Behörde - OSM</desc>
    <sym>City</sym>
  </wpt>
  <wpt lat="48.1941943" lon="16.376232">
    <name>Unbekannt</name>
    <desc>Behörde - OSM</desc>
    <sym>City</sym>
  </wpt>
  <wpt lat="48.2429504" lon="16.3518076">
    <name>Unbekannt</name>
    <desc>Behörde - OSM</desc>
    <sym>City</sym>
  </wpt>
  <wpt lat="48.2503005" lon="16.3554979">
    <name>Unbekannt</name>
    <desc>Behörde - OSM</desc>
    <sym>City</sym>
  </wpt>
  <wpt lat="48.1807659" lon="16.3319198">
    <name>Amtshaus Niederhofstraße</name>
    <desc>Behörde - OSM</desc>
    <sym>City</sym>
  </wpt>
  <wpt lat="48.2096116" lon="16.3817047">
    <name>Unbekannt</name>
    <desc>Behörde - OSM</desc>
    <sym>City</sym>
  </wpt>
  <wpt lat="48.1946031" lon="16.3254607">
    <name>Stadtraum Mitte 15</name>
    <desc>Behörde - OSM</desc>
    <sym>City</sym>
  </wpt>
  <wpt lat="48.2321659" lon="16.4559559">
    <name>MA 48</name>
    <desc>Behörde - OSM</desc>
    <sym>City</sym>
  </wpt>
  <wpt lat="48.2417524" lon="16.3491761">
    <name>Unbekannt</name>
    <desc>Behörde - OSM</desc>
    <sym>City</sym>
  </wpt>
  <wpt lat="48.2417897" lon="16.3502098">
    <name>Unbekannt</name>
    <desc>Behörde - OSM</desc>
    <sym>City</sym>
  </wpt>
  <wpt lat="48.2308164" lon="16.33629">
    <name>Unbekannt</name>
    <desc>Behörde - OSM</desc>
    <sym>City</sym>
  </wpt>
  <wpt lat="48.2443751" lon="16.3464528">
    <name>Unbekannt</name>
    <desc>Behörde - OSM</desc>
    <sym>City</sym>
  </wpt>
  <wpt lat="48.2442524" lon="16.3461594">
    <name>Unbekannt</name>
    <desc>Behörde - OSM</desc>
    <sym>City</sym>
  </wpt>
  <wpt lat="48.1978625" lon="16.3841005">
    <name>Unbekannt</name>
    <desc>Behörde - OSM</desc>
    <sym>City</sym>
  </wpt>
  <wpt lat="48.1892655" lon="16.3613743">
    <name>Justizanstalt Wien-Mittersteig</name>
    <desc>Behörde - OSM</desc>
    <sym>City</sym>
  </wpt>
  <wpt lat="48.2474742" lon="16.3560399">
    <name>Bezirkspolizeikommando Döbling</name>
    <desc>Polizei - OSM</desc>
    <sym>Police</sym>
  </wpt>
  <wpt lat="48.2053923" lon="16.3723308">
    <name>Unbekannt</name>
    <desc>Behörde - OSM</desc>
    <sym>City</sym>
  </wpt>
  <wpt lat="48.1842108" lon="16.4066517">
    <name>Unbekannt</name>
    <desc>Behörde - OSM</desc>
    <sym>City</sym>
  </wpt>
  <wpt lat="48.1769929" lon="16.4242145">
    <name>Hygienezentrum der Stadt Wien</name>
    <desc>Behörde - OSM</desc>
    <sym>City</sym>
  </wpt>
  <wpt lat="48.2026447" lon="16.36314">
    <name>Unbekannt</name>
    <desc>Behörde - OSM</desc>
    <sym>City</sym>
  </wpt>
  <wpt lat="48.1401237" lon="16.2432577">
    <name>v. Mack'sches Stiftungshaus</name>
    <desc>Behörde - OSM</desc>
    <sym>City</sym>
  </wpt>
  <wpt lat="48.1873994" lon="16.2896392">
    <name>Unbekannt</name>
    <desc>Behörde - OSM</desc>
    <sym>City</sym>
  </wpt>
  <wpt lat="48.1253124" lon="16.3287771">
    <name>Polizeiinspektion Vösendorf</name>
    <desc>Polizei - OSM</desc>
    <sym>Police</sym>
  </wpt>
  <wpt lat="48.1328561" lon="16.1945043">
    <name>Gemeindeamt</name>
    <desc>Behörde - OSM</desc>
    <sym>City</sym>
  </wpt>
  <wpt lat="48.2049212" lon="16.3088606">
    <name>Unbekannt</name>
    <desc>Behörde - OSM</desc>
    <sym>City</sym>
  </wpt>
  <wpt lat="48.1107221" lon="16.3982003">
    <name>Polizeiinspektion Leopoldsdorf</name>
    <desc>Polizei - OSM</desc>
    <sym>Police</sym>
  </wpt>
  <wpt lat="48.1977246" lon="16.3614634">
    <name>Unbekannt</name>
    <desc>Behörde - OSM</desc>
    <sym>City</sym>
  </wpt>
  <wpt lat="48.1828798" lon="16.3777211">
    <name>Unbekannt</name>
    <desc>Behörde - OSM</desc>
    <sym>City</sym>
  </wpt>
  <wpt lat="48.1786912" lon="16.3748405">
    <name>Unbekannt</name>
    <desc>Behörde - OSM</desc>
    <sym>City</sym>
  </wpt>
  <wpt lat="48.1786903" lon="16.3743823">
    <name>Unbekannt</name>
    <desc>Behörde - OSM</desc>
    <sym>City</sym>
  </wpt>
  <wpt lat="48.1527711" lon="16.4698666">
    <name>Polizeiinspektion Sängergasse</name>
    <desc>Polizei - OSM</desc>
    <sym>Police</sym>
  </wpt>
  <wpt lat="48.1742791" lon="16.3789405">
    <name>MA 44</name>
    <desc>Behörde - OSM</desc>
    <sym>City</sym>
  </wpt>
  <wpt lat="48.124933" lon="16.5532412">
    <name>Stadtpolizeikommando Schwechat</name>
    <desc>Polizei - OSM</desc>
    <sym>Police</sym>
  </wpt>
  <wpt lat="48.2945156" lon="16.4681157">
    <name>Polizeiinspektion Gerasdorf bei Wien</name>
    <desc>Polizei - OSM</desc>
    <sym>Police</sym>
  </wpt>
  <wpt lat="48.2057135" lon="16.5490044">
    <name>Polizeiinspektion Groß-Enzersdorf</name>
    <desc>Polizei - OSM</desc>
    <sym>Police</sym>
  </wpt>
  <wpt lat="48.2625641" lon="16.4578854">
    <name>Österreichischer Bundesfeuerwehrverband</name>
    <desc>Behörde - OSM</desc>
    <sym>City</sym>
  </wpt>
  <wpt lat="48.2077284" lon="16.3640829">
    <name>Präsidentschaftskanzlei</name>
    <desc>Behörde - OSM</desc>
    <sym>City</sym>
  </wpt>
  <wpt lat="48.2075957" lon="16.3851084">
    <name>Finanzzentrum Wien Mitte</name>
    <desc>Behörde - OSM</desc>
    <sym>City</sym>
  </wpt>
  <wpt lat="48.2070815" lon="16.3860982">
    <name>Polizeiinspektion Wien Mitte</name>
    <desc>Polizei - OSM</desc>
    <sym>Police</sym>
  </wpt>
  <wpt lat="48.1805988" lon="16.3532994">
    <name>Zentrale der MA 48</name>
    <desc>Behörde - OSM</desc>
    <sym>City</sym>
  </wpt>
  <wpt lat="48.2209809" lon="16.3548415">
    <name>Bezirksvorstehung Alsergrund</name>
    <desc>Behörde - OSM</desc>
    <sym>City</sym>
  </wpt>
  <wpt lat="48.1912096" lon="16.3120229">
    <name>Botschaft der Demokratischen Volksrepublik Korea</name>
    <desc>Behörde - OSM</desc>
    <sym>City</sym>
  </wpt>
  <wpt lat="48.1913129" lon="16.3498543">
    <name>Wiener Wasser</name>
    <desc>Behörde - OSM</desc>
    <sym>City</sym>
  </wpt>
  <wpt lat="48.1774702" lon="16.3733305">
    <name>Unbekannt</name>
    <desc>Behörde - OSM</desc>
    <sym>City</sym>
  </wpt>
  <wpt lat="48.2188325" lon="16.3913788">
    <name>Polizeiinspektion Praterstern</name>
    <desc>Polizei - OSM</desc>
    <sym>Police</sym>
  </wpt>
  <wpt lat="48.2107208" lon="16.3582368">
    <name>Unbekannt</name>
    <desc>Behörde - OSM</desc>
    <sym>City</sym>
  </wpt>
  <wpt lat="48.1786127" lon="16.3745193">
    <name>Unbekannt</name>
    <desc>Behörde - OSM</desc>
    <sym>City</sym>
  </wpt>
  <wpt lat="48.1784417" lon="16.3746073">
    <name>Unbekannt</name>
    <desc>Behörde - OSM</desc>
    <sym>City</sym>
  </wpt>
  <wpt lat="48.2505398" lon="16.3552529">
    <name>Unbekannt</name>
    <desc>Behörde - OSM</desc>
    <sym>City</sym>
  </wpt>
  <wpt lat="48.197467" lon="16.3813759">
    <name>Botschaft des Vereinigten Königreichs Großbritannien und Nordirland</name>
    <desc>Botschaft - OSM</desc>
    <sym>Embassy</sym>
  </wpt>
  <wpt lat="48.1964268" lon="16.3821128">
    <name>Botschaft der Bundesrepublik Nigeria</name>
    <desc>Botschaft - OSM</desc>
    <sym>Embassy</sym>
  </wpt>
  <wpt lat="48.1979794" lon="16.378196">
    <name>Botschaft der Republik Kroatien in Österreich</name>
    <desc>Botschaft - OSM</desc>
    <sym>Embassy</sym>
  </wpt>
  <wpt lat="48.1967864" lon="16.3719617">
    <name>Botschaft der Republik Griechenland</name>
    <desc>Botschaft - OSM</desc>
    <sym>Embassy</sym>
  </wpt>
  <wpt lat="48.1975511" lon="16.3737897">
    <name>Botschaft der Republik Bulgarien</name>
    <desc>Botschaft - OSM</desc>
    <sym>Embassy</sym>
  </wpt>
  <wpt lat="48.2131806" lon="16.3620013">
    <name>Konsulat von Monaco</name>
    <desc>Konsulat - OSM</desc>
    <sym>Embassy</sym>
  </wpt>
  <wpt lat="48.2036852" lon="16.3763636">
    <name>Botschaft der Republik Zypern in Österreich</name>
    <desc>Botschaft - OSM</desc>
    <sym>Embassy</sym>
  </wpt>
  <wpt lat="48.2129074" lon="16.3685023">
    <name>Generalkonsulat der Republik Frankreich</name>
    <desc>Konsulat - OSM</desc>
    <sym>Embassy</sym>
  </wpt>
  <wpt lat="48.2117558" lon="16.3615304">
    <name>Kongelig Dansk Generalkonsulat</name>
    <desc>Konsulat - OSM</desc>
    <sym>Embassy</sym>
  </wpt>
  <wpt lat="48.1976325" lon="16.3840887">
    <name>Botschaft der Russischen Föderation</name>
    <desc>Botschaft - OSM</desc>
    <sym>Embassy</sym>
  </wpt>
  <wpt lat="48.2141801" lon="16.3642669">
    <name>Botschaft Japans in Österreich</name>
    <desc>Botschaft - OSM</desc>
    <sym>Embassy</sym>
  </wpt>
  <wpt lat="48.2092828" lon="16.3563658">
    <name>Botschaft der Republik Kolumbien</name>
    <desc>Botschaft - OSM</desc>
    <sym>Embassy</sym>
  </wpt>
  <wpt lat="48.2103746" lon="16.3631959">
    <name>Botschaft von Ungarn</name>
    <desc>Botschaft - OSM</desc>
    <sym>Embassy</sym>
  </wpt>
  <wpt lat="48.2085691" lon="16.3717968">
    <name>Botschaft der Republik Argentinien in Österreich</name>
    <desc>Botschaft - OSM</desc>
    <sym>Embassy</sym>
  </wpt>
  <wpt lat="48.2107019" lon="16.3784016">
    <name>Botschaft Kanadas in Österreich</name>
    <desc>Botschaft - OSM</desc>
    <sym>Embassy</sym>
  </wpt>
  <wpt lat="48.2025987" lon="16.3778648">
    <name>Irakische Botschaft</name>
    <desc>Botschaft - OSM</desc>
    <sym>Embassy</sym>
  </wpt>
  <wpt lat="48.1904276" lon="16.3795459">
    <name>Botschaft der Republik Kosovo</name>
    <desc>Botschaft - OSM</desc>
    <sym>Embassy</sym>
  </wpt>
  <wpt lat="48.2051238" lon="16.371652">
    <name>Botschaft des Souveränen Malteser-Ritterordens</name>
    <desc>Botschaft - OSM</desc>
    <sym>Embassy</sym>
  </wpt>
  <wpt lat="48.2092642" lon="16.362683">
    <name>Botschaft des Fürstentums Liechtenstein</name>
    <desc>Botschaft - OSM</desc>
    <sym>Embassy</sym>
  </wpt>
  <wpt lat="48.1896424" lon="16.3122432">
    <name>Botschaft der Tschechischen Republik</name>
    <desc>Botschaft - OSM</desc>
    <sym>Embassy</sym>
  </wpt>
  <wpt lat="48.2030763" lon="16.2575681">
    <name>Botschaft der Republik Weißrußland (Belarus)</name>
    <desc>Botschaft - OSM</desc>
    <sym>Embassy</sym>
  </wpt>
  <wpt lat="48.2066416" lon="16.394292">
    <name>Botschaft der Republik Litauen</name>
    <desc>Botschaft - OSM</desc>
    <sym>Embassy</sym>
  </wpt>
  <wpt lat="48.1968196" lon="16.3747022">
    <name>Botschaft des Königreichs Belgien</name>
    <desc>Botschaft - OSM</desc>
    <sym>Embassy</sym>
  </wpt>
  <wpt lat="48.2300131" lon="16.3414012">
    <name>Botschaft des Staates Israel</name>
    <desc>Botschaft - OSM</desc>
    <sym>Embassy</sym>
  </wpt>
  <wpt lat="48.2330303" lon="16.3374174">
    <name>Botschaft der Republik Korea</name>
    <desc>Botschaft - OSM</desc>
    <sym>Embassy</sym>
  </wpt>
  <wpt lat="48.2325878" lon="16.3420018">
    <name>Botschaft des Königreiches Thailand</name>
    <desc>Botschaft - OSM</desc>
    <sym>Embassy</sym>
  </wpt>
  <wpt lat="48.2323451" lon="16.33899">
    <name>Botschaft der Republik Indonesien</name>
    <desc>Botschaft - OSM</desc>
    <sym>Embassy</sym>
  </wpt>
  <wpt lat="48.1912938" lon="16.3727684">
    <name>Apostolische Nuntiatur in Österreich</name>
    <desc>Botschaft - OSM</desc>
    <sym>Embassy</sym>
  </wpt>
  <wpt lat="48.2443694" lon="16.3464548">
    <name>Botschaft der Demokratischen Volksrepublik Algerien</name>
    <desc>Botschaft - OSM</desc>
    <sym>Embassy</sym>
  </wpt>
  <wpt lat="48.1973958" lon="16.3800393">
    <name>Botschaft der Republik Venezuela in Österreich</name>
    <desc>Botschaft - OSM</desc>
    <sym>Embassy</sym>
  </wpt>
  <wpt lat="48.1984165" lon="16.3725775">
    <name>Botschaft Australiens in Österreich</name>
    <desc>Botschaft - OSM</desc>
    <sym>Embassy</sym>
  </wpt>
  <wpt lat="48.1964357" lon="16.3761278">
    <name>Botschaft der Schweizerischen Eidgenossenschaft in Österreich</name>
    <desc>Botschaft - OSM</desc>
    <sym>Embassy</sym>
  </wpt>
  <wpt lat="48.1806788" lon="16.320998">
    <name>Botschaft der Republik Bosnien und Herzegowina in Österreich</name>
    <desc>Botschaft - OSM</desc>
    <sym>Embassy</sym>
  </wpt>
  <wpt lat="48.1971533" lon="16.3840618">
    <name>Botschaft der Islamischen Republik Iran in Österreich</name>
    <desc>Botschaft - OSM</desc>
    <sym>Embassy</sym>
  </wpt>
  <wpt lat="48.1963254" lon="16.3839187">
    <name>Botschaft des Königreiches Norwegen in Österreich</name>
    <desc>Botschaft - OSM</desc>
    <sym>Embassy</sym>
  </wpt>
  <wpt lat="48.1977559" lon="16.3819973">
    <name>Botschaft der Volksrepublik China in Österreich</name>
    <desc>Botschaft - OSM</desc>
    <sym>Embassy</sym>
  </wpt>
  <wpt lat="48.1993413" lon="16.3773111">
    <name>Botschaft der Arabischen Republik Syrien in Österreich</name>
    <desc>Botschaft - OSM</desc>
    <sym>Embassy</sym>
  </wpt>
  <wpt lat="48.2548512" lon="16.3486901">
    <name>Botschaft von Südafrika</name>
    <desc>Botschaft - OSM</desc>
    <sym>Embassy</sym>
  </wpt>
  <wpt lat="48.1882042" lon="16.3746203">
    <name>Botschaft der Republik Sri Lanka</name>
    <desc>Botschaft - OSM</desc>
    <sym>Embassy</sym>
  </wpt>
  <wpt lat="48.1984617" lon="16.3726955">
    <name>Griechisches Konsulat</name>
    <desc>Konsulat - OSM</desc>
    <sym>Embassy</sym>
  </wpt>
  <wpt lat="48.1954984" lon="16.3763849">
    <name>Botschaft der Republik Albanien</name>
    <desc>Botschaft - OSM</desc>
    <sym>Embassy</sym>
  </wpt>
  <wpt lat="48.2019133" lon="16.3701204">
    <name>Botschaft des Fürstentums Andorra</name>
    <desc>Botschaft - OSM</desc>
    <sym>Embassy</sym>
  </wpt>
  <wpt lat="48.2041443" lon="16.3739749">
    <name>Botschaft der Republik Angola</name>
    <desc>Botschaft - OSM</desc>
    <sym>Embassy</sym>
  </wpt>
  <wpt lat="48.1984574" lon="16.3832474">
    <name>Botschaft von Burkina Faso</name>
    <desc>Botschaft - OSM</desc>
    <sym>Embassy</sym>
  </wpt>
  <wpt lat="48.1955943" lon="16.3763256">
    <name>Botschaft der Dominikanischen Republik</name>
    <desc>Botschaft - OSM</desc>
    <sym>Embassy</sym>
  </wpt>
  <wpt lat="48.2048988" lon="16.3698783">
    <name>Botschaft des Königreichs Dänemark</name>
    <desc>Botschaft - OSM</desc>
    <sym>Embassy</sym>
  </wpt>
  <wpt lat="48.2092939" lon="16.3704317">
    <name>Botschaft der Republik Ecuador</name>
    <desc>Botschaft - OSM</desc>
    <sym>Embassy</sym>
  </wpt>
  <wpt lat="48.1895079" lon="16.3803951">
    <name>Botschaft der Republik El Salvador</name>
    <desc>Botschaft - OSM</desc>
    <sym>Embassy</sym>
  </wpt>
  <wpt lat="48.2147018" lon="16.3657945">
    <name>Europäische Kommission - Vertretung in Österreich</name>
    <desc>Botschaft - OSM</desc>
    <sym>Embassy</sym>
  </wpt>
  <wpt lat="48.2147674" lon="16.3657938">
    <name>Europäisches Parlament - Vertretung in Österreich</name>
    <desc>Botschaft - OSM</desc>
    <sym>Embassy</sym>
  </wpt>
  <wpt lat="48.214536" lon="16.3644824">
    <name>Botschaft des Staates Katar</name>
    <desc>Botschaft - OSM</desc>
    <sym>Embassy</sym>
  </wpt>
  <wpt lat="48.2115505" lon="16.3617346">
    <name>Botschaft der Libanesischen Republik</name>
    <desc>Botschaft - OSM</desc>
    <sym>Embassy</sym>
  </wpt>
  <wpt lat="48.2022787" lon="16.3681671">
    <name>Botschaft der Republik Malta</name>
    <desc>Botschaft - OSM</desc>
    <sym>Embassy</sym>
  </wpt>
  <wpt lat="48.2022824" lon="16.3681036">
    <name>Botschaft des Königreichs der Niederlande</name>
    <desc>Botschaft - OSM</desc>
    <sym>Embassy</sym>
  </wpt>
  <wpt lat="48.2096098" lon="16.366956">
    <name>Botschaft der Republik Östlich des Uruguay</name>
    <desc>Botschaft - OSM</desc>
    <sym>Embassy</sym>
  </wpt>
  <wpt lat="48.206939" lon="16.3865248">
    <name>Botschaft der Kirgisischen Republik</name>
    <desc>Botschaft - OSM</desc>
    <sym>Embassy</sym>
  </wpt>
  <wpt lat="48.2067569" lon="16.3941685">
    <name>Botschaft von Moldawien</name>
    <desc>Botschaft - OSM</desc>
    <sym>Embassy</sym>
  </wpt>
  <wpt lat="48.2010711" lon="16.3833746">
    <name>Botschaft der Republik Jemen</name>
    <desc>Botschaft - OSM</desc>
    <sym>Embassy</sym>
  </wpt>
  <wpt lat="48.2000478" lon="16.3840009">
    <name>Botschaft der Sudan</name>
    <desc>Botschaft - OSM</desc>
    <sym>Embassy</sym>
  </wpt>
  <wpt lat="48.1969399" lon="16.3808479">
    <name>Botschaft des Haschemitischen Königreichs Jordanien</name>
    <desc>Botschaft - OSM</desc>
    <sym>Embassy</sym>
  </wpt>
  <wpt lat="48.1958602" lon="16.3725062">
    <name>Botschaft von Turkmenistan</name>
    <desc>Botschaft - OSM</desc>
    <sym>Embassy</sym>
  </wpt>
  <wpt lat="48.198463" lon="16.3727544">
    <name>Botschaft von Neuseeland</name>
    <desc>Botschaft - OSM</desc>
    <sym>Embassy</sym>
  </wpt>
  <wpt lat="48.1957797" lon="16.3762114">
    <name>Botschaft der Republik San Marino</name>
    <desc>Botschaft - OSM</desc>
    <sym>Embassy</sym>
  </wpt>
  <wpt lat="48.1955272" lon="16.3762895">
    <name>Botschaft der Republik Paraguay</name>
    <desc>Botschaft - OSM</desc>
    <sym>Embassy</sym>
  </wpt>
  <wpt lat="48.2083009" lon="16.3534772">
    <name>Vertretung von Palästina</name>
    <desc>Botschaft - OSM</desc>
    <sym>Embassy</sym>
  </wpt>
  <wpt lat="48.2156233" lon="16.3445075">
    <name>Botschaft der Republik Nordmazedonien</name>
    <desc>Botschaft - OSM</desc>
    <sym>Embassy</sym>
  </wpt>
  <wpt lat="48.214707" lon="16.357201">
    <name>Botschaft der Republik Tadschikistan</name>
    <desc>Botschaft - OSM</desc>
    <sym>Embassy</sym>
  </wpt>
  <wpt lat="48.2148992" lon="16.3617898">
    <name>Botschaft des Sultanats Oman</name>
    <desc>Botschaft - OSM</desc>
    <sym>Embassy</sym>
  </wpt>
  <wpt lat="48.2568535" lon="16.3578032">
    <name>Botschaft der Slowakischen Republik</name>
    <desc>Botschaft - OSM</desc>
    <sym>Embassy</sym>
  </wpt>
  <wpt lat="48.2382098" lon="16.3412635">
    <name>Botschaft des Staates Libyen</name>
    <desc>Botschaft - OSM</desc>
    <sym>Embassy</sym>
  </wpt>
  <wpt lat="48.2429458" lon="16.3517828">
    <name>Botschaft der Islamischen Republik Pakistan</name>
    <desc>Botschaft - OSM</desc>
    <sym>Embassy</sym>
  </wpt>
  <wpt lat="48.2523891" lon="16.3327968">
    <name>Botschaft der Republik Lettland</name>
    <desc>Botschaft - OSM</desc>
    <sym>Embassy</sym>
  </wpt>
  <wpt lat="48.2565956" lon="16.3372975">
    <name>Botschaft des Staates Kuwait</name>
    <desc>Botschaft - OSM</desc>
    <sym>Embassy</sym>
  </wpt>
  <wpt lat="48.2441384" lon="16.3126388">
    <name>Botschaft der Republik Namibia</name>
    <desc>Botschaft - OSM</desc>
    <sym>Embassy</sym>
  </wpt>
  <wpt lat="48.2530872" lon="16.3924792">
    <name>Botschaft von Malaysia</name>
    <desc>Botschaft - OSM</desc>
    <sym>Embassy</sym>
  </wpt>
  <wpt lat="48.2019431" lon="16.3699487">
    <name>Botschaft der Republik Indien</name>
    <desc>Botschaft - OSM</desc>
    <sym>Embassy</sym>
  </wpt>
  <wpt lat="48.2505762" lon="16.3554421">
    <name>Botschaft der Arabischen Republik Ägypten</name>
    <desc>Botschaft - OSM</desc>
    <sym>Embassy</sym>
  </wpt>
  <wpt lat="48.2107579" lon="16.3784257">
    <name>Botschaft der Republik Irak</name>
    <desc>Botschaft - OSM</desc>
    <sym>Embassy</sym>
  </wpt>
  <wpt lat="48.2107276" lon="16.3752169">
    <name>Botschaft von Irland</name>
    <desc>Botschaft - OSM</desc>
    <sym>Embassy</sym>
  </wpt>
  <wpt lat="48.205508" lon="16.3399941">
    <name>Botschaft der Republik Kuba</name>
    <desc>Botschaft - OSM</desc>
    <sym>Embassy</sym>
  </wpt>
  <wpt lat="48.2126183" lon="16.3667837">
    <name>Botschaft der Vereinigten Mexikanischen Staaten</name>
    <desc>Botschaft - OSM</desc>
    <sym>Embassy</sym>
  </wpt>
  <wpt lat="48.1736235" lon="16.2891283">
    <name>Botschaft der Republik Mongolei</name>
    <desc>Botschaft - OSM</desc>
    <sym>Embassy</sym>
  </wpt>
  <wpt lat="48.1986279" lon="16.3849303">
    <name>Botschaft der Republik Côte d’Ivoire</name>
    <desc>Botschaft - OSM</desc>
    <sym>Embassy</sym>
  </wpt>
  <wpt lat="48.2082494" lon="16.3562756">
    <name>Botschaft von Georgien</name>
    <desc>Botschaft - OSM</desc>
    <sym>Embassy</sym>
  </wpt>
  <wpt lat="48.2012713" lon="16.3757006">
    <name>Botschaft der föderativen Republik Brasilien</name>
    <desc>Botschaft - OSM</desc>
    <sym>Embassy</sym>
  </wpt>
  <wpt lat="48.2308238" lon="16.3362882">
    <name>Unbekannt</name>
    <desc>Botschaft - OSM</desc>
    <sym>Embassy</sym>
  </wpt>
  <wpt lat="48.1964008" lon="16.3741342">
    <name>Botschaft der Republik Estland</name>
    <desc>Botschaft - OSM</desc>
    <sym>Embassy</sym>
  </wpt>
  <wpt lat="48.237286" lon="16.3395347">
    <name>Botschaft des Staates  Bangladesch</name>
    <desc>Botschaft - OSM</desc>
    <sym>Embassy</sym>
  </wpt>
  <wpt lat="48.2336273" lon="16.411618">
    <name>Botschaft der Republik Philippinen</name>
    <desc>Botschaft - OSM</desc>
    <sym>Embassy</sym>
  </wpt>
  <wpt lat="48.2112434" lon="16.3778377">
    <name>Botschaft von Belize</name>
    <desc>Botschaft - OSM</desc>
    <sym>Embassy</sym>
  </wpt>
  <wpt lat="48.2099641" lon="16.3749392">
    <name>Botschaft der Republik Chile</name>
    <desc>Botschaft - OSM</desc>
    <sym>Embassy</sym>
  </wpt>
  <wpt lat="48.2024787" lon="16.3628355">
    <name>Botschaft von Montenegro</name>
    <desc>Botschaft - OSM</desc>
    <sym>Embassy</sym>
  </wpt>
  <wpt lat="48.2025497" lon="16.3626921">
    <name>Internationale Organisation für Wanderung - Vertretung in Österreich</name>
    <desc>Botschaft - OSM</desc>
    <sym>Embassy</sym>
  </wpt>
  <wpt lat="48.1989945" lon="16.366284">
    <name>Konsularabteilung der Botschaft der Republik Kroatien</name>
    <desc>Konsulat - OSM</desc>
    <sym>Embassy</sym>
  </wpt>
  <wpt lat="48.2050846" lon="16.3772704">
    <name>Botschaft der Vereinigten Staaten (Konsularabteilung)</name>
    <desc>Konsulat - OSM</desc>
    <sym>Embassy</sym>
  </wpt>
  <wpt lat="48.1930383" lon="16.3781323">
    <name>Botschaft der Republik Türkei</name>
    <desc>Botschaft - OSM</desc>
    <sym>Embassy</sym>
  </wpt>
  <wpt lat="48.2177195" lon="16.3696743">
    <name>Konsulat der Republik Mosambik</name>
    <desc>Konsulat - OSM</desc>
    <sym>Embassy</sym>
  </wpt>
  <wpt lat="48.2089349" lon="16.3572021">
    <name>Vertretung der Regierung von Katalonien in Österreich</name>
    <desc>Botschaft - OSM</desc>
    <sym>Embassy</sym>
  </wpt>
  <wpt lat="48.1937589" lon="16.3776492">
    <name>Botschaft der Republik Kasachstan</name>
    <desc>Botschaft - OSM</desc>
    <sym>Embassy</sym>
  </wpt>
  <wpt lat="48.2015312" lon="16.3641309">
    <name>Botschaft der Bundesrepublik Deutschland</name>
    <desc>Botschaft - OSM</desc>
    <sym>Embassy</sym>
  </wpt>
  <wpt lat="48.2368844" lon="16.3417155">
    <name>Norwegische Botschaft</name>
    <desc>Botschaft - OSM</desc>
    <sym>Embassy</sym>
  </wpt>
  <wpt lat="48.1990418" lon="16.3834284">
    <name>Botschaft der Republik Zypern</name>
    <desc>Botschaft - OSM</desc>
    <sym>Embassy</sym>
  </wpt>
  <wpt lat="48.2159855" lon="16.3634445">
    <name>Botschaft der Republik Slowenien</name>
    <desc>Botschaft - OSM</desc>
    <sym>Embassy</sym>
  </wpt>
  <wpt lat="48.2324887" lon="16.3465909">
    <name>libanesische Botschaft</name>
    <desc>Botschaft - OSM</desc>
    <sym>Embassy</sym>
  </wpt>
  <wpt lat="48.2097363" lon="16.368498">
    <name>Botschaft von Island</name>
    <desc>Botschaft - OSM</desc>
    <sym>Embassy</sym>
  </wpt>
  <wpt lat="48.2015607" lon="16.3718412">
    <name>Schweizerische Botschaft / Embassy of Switzerland</name>
    <desc>Botschaft - OSM</desc>
    <sym>Embassy</sym>
  </wpt>
  <wpt lat="48.2174024" lon="16.3746687">
    <name>Botschaft der Republik Costa Rica</name>
    <desc>Botschaft - OSM</desc>
    <sym>Embassy</sym>
  </wpt>
  <wpt lat="48.2330901" lon="16.4140524">
    <name>Botschaft der Republik Kenia</name>
    <desc>Botschaft - OSM</desc>
    <sym>Embassy</sym>
  </wpt>
  <wpt lat="48.258158" lon="16.3372702">
    <name>Residenz des Botschafters der Republik Namibia</name>
    <desc>Botschaft - OSM</desc>
    <sym>Embassy</sym>
  </wpt>
  <wpt lat="48.2339588" lon="16.3118367">
    <name>Konsularabteilung der Botschaft der Ukraine</name>
    <desc>Konsulat - OSM</desc>
    <sym>Embassy</sym>
  </wpt>
  <wpt lat="48.1894491" lon="16.3670422">
    <name>Botschaft von Belgien</name>
    <desc>Botschaft - OSM</desc>
    <sym>Embassy</sym>
  </wpt>
  <wpt lat="48.1955792" lon="16.3761406">
    <name>Botschaft von Guatemala</name>
    <desc>Botschaft - OSM</desc>
    <sym>Embassy</sym>
  </wpt>
  <wpt lat="48.1998276" lon="16.3877878">
    <name>Konsularabteilung der Italienischen Botschaft in Wien</name>
    <desc>Konsulat - OSM</desc>
    <sym>Embassy</sym>
  </wpt>
  <wpt lat="48.1961639" lon="16.3827164">
    <name>Botschaft der Italienischen Republik in Österreich</name>
    <desc>Botschaft - OSM</desc>
    <sym>Embassy</sym>
  </wpt>
  <wpt lat="48.2001959" lon="16.3839474">
    <name>Permanent mission of Albania to the international organisations</name>
    <desc>Botschaft - OSM</desc>
    <sym>Embassy</sym>
  </wpt>
  <wpt lat="48.254995" lon="16.3487236">
    <name>Dauerhafte Vertretung von Südafrika bei den Vereinten Nationen</name>
    <desc>Botschaft - OSM</desc>
    <sym>Embassy</sym>
  </wpt>
  <wpt lat="48.2149786" lon="16.3617499">
    <name>Botschaft des Sultanats Oman</name>
    <desc>Botschaft - OSM</desc>
    <sym>Embassy</sym>
  </wpt>
  <wpt lat="48.1895262" lon="16.3127362">
    <name>Konsularabteilung der Tschechischen Botschaft</name>
    <desc>Konsulat - OSM</desc>
    <sym>Embassy</sym>
  </wpt>
  <wpt lat="48.2330609" lon="16.4140512">
    <name>Botschaft von Myanmar</name>
    <desc>Botschaft - OSM</desc>
    <sym>Embassy</sym>
  </wpt>
  <wpt lat="48.1939133" lon="16.3113977">
    <name>Honorary Consulate of Djibouti</name>
    <desc>Konsulat - OSM</desc>
    <sym>Embassy</sym>
  </wpt>
  <wpt lat="48.1953286" lon="16.3695108">
    <name>Konsularabteilung der griechischen Botschaft</name>
    <desc>Konsulat - OSM</desc>
    <sym>Embassy</sym>
  </wpt>
  <wpt lat="48.1802485" lon="16.3351076">
    <name>Honorarkonsulat von Finnland</name>
    <desc>Konsulat - OSM</desc>
    <sym>Embassy</sym>
  </wpt>
  <wpt lat="48.233665" lon="16.3350727">
    <name>Botschaft des Königreichs Marokko</name>
    <desc>Botschaft - OSM</desc>
    <sym>Embassy</sym>
  </wpt>
  <wpt lat="48.1937737" lon="16.3499243">
    <name>Konsulat der Republik Serbien</name>
    <desc>Konsulat - OSM</desc>
    <sym>Embassy</sym>
  </wpt>
  <wpt lat="48.2028164" lon="16.3715488">
    <name>Botschaft von Peru</name>
    <desc>Botschaft - OSM</desc>
    <sym>Embassy</sym>
  </wpt>
  <wpt lat="48.2005665" lon="16.3797535">
    <name>Botschaft der Republik Serbien</name>
    <desc>Botschaft - OSM</desc>
    <sym>Embassy</sym>
  </wpt>
  <wpt lat="48.2451927" lon="16.3552241">
    <name>Chinesische Botschaft für die UN und andere internationale Organisationen</name>
    <desc>Botschaft - OSM</desc>
    <sym>Embassy</sym>
  </wpt>
  <wpt lat="48.2225118" lon="16.3580788">
    <name>Schwedische Botschaft</name>
    <desc>Botschaft - OSM</desc>
    <sym>Embassy</sym>
  </wpt>
  <wpt lat="48.1915653" lon="16.3748643">
    <name>Botschaft von Spanien</name>
    <desc>Botschaft - OSM</desc>
    <sym>Embassy</sym>
  </wpt>
  <wpt lat="48.2423971" lon="16.3337306">
    <name>Botschaft der Republik Tadschikistan</name>
    <desc>Botschaft - OSM</desc>
    <sym>Embassy</sym>
  </wpt>
  <wpt lat="48.1873005" lon="16.2901816">
    <name>Diplomatic OSCE-Mission PL</name>
    <desc>Botschaft - OSM</desc>
    <sym>Embassy</sym>
  </wpt>
  <wpt lat="48.1865056" lon="16.2965558">
    <name>Türkisches Generalkonsulat</name>
    <desc>Konsulat - OSM</desc>
    <sym>Embassy</sym>
  </wpt>
  <wpt lat="48.2503117" lon="16.355318">
    <name>Ägyptische Botschaft</name>
    <desc>Botschaft - OSM</desc>
    <sym>Embassy</sym>
  </wpt>
  <wpt lat="48.2508147" lon="16.3553094">
    <name>Botschaft der Arabischen Republik Ägypten - Konsularabteilung</name>
    <desc>Konsulat - OSM</desc>
    <sym>Embassy</sym>
  </wpt>
  <wpt lat="48.1978217" lon="16.3726545">
    <name>Tschechische Zentrum Wien</name>
    <desc>Botschaft - OSM</desc>
    <sym>Embassy</sym>
  </wpt>
  <wpt lat="48.1970551" lon="16.3806729">
    <name>Permanent Mission of Türkiye</name>
    <desc>Botschaft - OSM</desc>
    <sym>Embassy</sym>
  </wpt>
  <wpt lat="48.2019903" lon="16.3745119">
    <name>Permanent Mission of Türkiye to the OSCE</name>
    <desc>Botschaft - OSM</desc>
    <sym>Embassy</sym>
  </wpt>
  <wpt lat="48.2022358" lon="16.3680912">
    <name>Botschaft von Finnland</name>
    <desc>Botschaft - OSM</desc>
    <sym>Embassy</sym>
  </wpt>
  <wpt lat="48.2022039" lon="16.3684968">
    <name>Botschaft von Portugal</name>
    <desc>Botschaft - OSM</desc>
    <sym>Embassy</sym>
  </wpt>
  <wpt lat="48.2092609" lon="16.3704764">
    <name>Botschaft von Panama</name>
    <desc>Botschaft - OSM</desc>
    <sym>Embassy</sym>
  </wpt>
  <wpt lat="48.1975177" lon="16.3813743">
    <name>UK Mission to the UN</name>
    <desc>Botschaft - OSM</desc>
    <sym>Embassy</sym>
  </wpt>
  <wpt lat="48.1975526" lon="16.3813703">
    <name>UK Delegation to the OSCE</name>
    <desc>Botschaft - OSM</desc>
    <sym>Embassy</sym>
  </wpt>
  <wpt lat="48.1939336" lon="16.3693059">
    <name>Kulturinstitut der Russischen Föderation</name>
    <desc>Botschaft - OSM</desc>
    <sym>Embassy</sym>
  </wpt>
  <wpt lat="48.1862064" lon="16.3762633">
    <name>Delegation of the European Union</name>
    <desc>Botschaft - OSM</desc>
    <sym>Embassy</sym>
  </wpt>
  <wpt lat="48.2107134" lon="16.3752294">
    <name>Permanent Mission of Ireland to OSCE</name>
    <desc>Botschaft - OSM</desc>
    <sym>Embassy</sym>
  </wpt>
  <wpt lat="48.1898473" lon="16.3770015">
    <name>Honorarkonsulat Der Republik Estland</name>
    <desc>Konsulat - OSM</desc>
    <sym>Embassy</sym>
  </wpt>
  <wpt lat="48.1991065" lon="16.3620684">
    <name>Senegalese Honorary Consulate in Vienna</name>
    <desc>Konsulat - OSM</desc>
    <sym>Embassy</sym>
  </wpt>
  <wpt lat="48.1969278" lon="16.3750976">
    <name>Unbekannt</name>
    <desc>Botschaft - OSM</desc>
    <sym>Embassy</sym>
  </wpt>
  <wpt lat="48.1904297" lon="16.3841536">
    <name>Residenz des Botschafters der Niederlande</name>
    <desc>Botschaft - OSM</desc>
    <sym>Embassy</sym>
  </wpt>
  <wpt lat="48.1553095" lon="16.2713693">
    <name>Honorarkonsulat der Republik Litauen</name>
    <desc>Konsulat - OSM</desc>
    <sym>Embassy</sym>
  </wpt>
  <wpt lat="48.1977781" lon="16.3829538">
    <name>Botschaft der Bundesrepublik Deutschland</name>
    <desc>Botschaft - OSM</desc>
    <sym>Embassy</sym>
  </wpt>
  <wpt lat="48.1975368" lon="16.3829833">
    <name>Konsularreferat</name>
    <desc>Konsulat - OSM</desc>
    <sym>Embassy</sym>
  </wpt>
  <wpt lat="48.2229133" lon="16.3567698">
    <name>Botschaft der Vereinigten Staaten von Amerika</name>
    <desc>Botschaft - OSM</desc>
    <sym>Embassy</sym>
  </wpt>
  <wpt lat="48.1897754" lon="16.2859419">
    <name>Botschaft der Republik Aserbaidschan</name>
    <desc>Botschaft - OSM</desc>
    <sym>Embassy</sym>
  </wpt>
  <wpt lat="48.2194981" lon="16.3893726">
    <name>Wohnhaus der russischen Botschaft</name>
    <desc>Botschaft - OSM</desc>
    <sym>Embassy</sym>
  </wpt>
  <wpt lat="48.1987072" lon="16.3744656">
    <name>Botschaft der Französischen Republik in Österreich</name>
    <desc>Botschaft - OSM</desc>
    <sym>Embassy</sym>
  </wpt>
  <wpt lat="48.2233948" lon="16.4691816">
    <name>Ständige Vertretung der Russischen Föderation an die Vereinten Nationen in Wien</name>
    <desc>Botschaft - OSM</desc>
    <sym>Embassy</sym>
  </wpt>
  <wpt lat="48.1808626" lon="16.2816555">
    <name>Wirtschafts- und Handelsabteilung der Botschaft der Republik Polen</name>
    <desc>Botschaft - OSM</desc>
    <sym>Embassy</sym>
  </wpt>
  <wpt lat="48.2518268" lon="16.3196409">
    <name>Botschaft der Republik Tunesien</name>
    <desc>Botschaft - OSM</desc>
    <sym>Embassy</sym>
  </wpt>
  <wpt lat="48.2552227" lon="16.3393051">
    <name>Konsulat Republik Burundi</name>
    <desc>Konsulat - OSM</desc>
    <sym>Embassy</sym>
  </wpt>
  <wpt lat="48.234806" lon="16.3437488">
    <name>Botschaft der Sozialistischen Republik Vietnam</name>
    <desc>Botschaft - OSM</desc>
    <sym>Embassy</sym>
  </wpt>
  <wpt lat="48.2344758" lon="16.3434886">
    <name>Botschaft der Republik Kasachstan</name>
    <desc>Botschaft - OSM</desc>
    <sym>Embassy</sym>
  </wpt>
  <wpt lat="48.2311186" lon="16.345497">
    <name>Botschaft von Malaysia</name>
    <desc>Botschaft - OSM</desc>
    <sym>Embassy</sym>
  </wpt>
  <wpt lat="48.183515" lon="16.318922">
    <name>Residenz des chinesischen Botschafters</name>
    <desc>Botschaft - OSM</desc>
    <sym>Embassy</sym>
  </wpt>
  <wpt lat="48.1907325" lon="16.379516">
    <name>Botschaft der Republik Rumänien in Österreich</name>
    <desc>Botschaft - OSM</desc>
    <sym>Embassy</sym>
  </wpt>
  <wpt lat="48.1894076" lon="16.3800631">
    <name>Botschaft der Bolivarischen Republik Venezuela</name>
    <desc>Botschaft - OSM</desc>
    <sym>Embassy</sym>
  </wpt>
  <wpt lat="48.2397481" lon="16.3410907">
    <name>Botschaft der Vereinigten Arabischen Emirate</name>
    <desc>Botschaft - OSM</desc>
    <sym>Embassy</sym>
  </wpt>
  <wpt lat="48.2187769" lon="16.357407">
    <name>Botschaft der islamischen Republik Afghanistan</name>
    <desc>Botschaft - OSM</desc>
    <sym>Embassy</sym>
  </wpt>
  <wpt lat="48.1883422" lon="16.3096367">
    <name>Botschaft der Republik Armenien</name>
    <desc>Botschaft - OSM</desc>
    <sym>Embassy</sym>
  </wpt>
  <wpt lat="48.2401346" lon="16.3123733">
    <name>Botschaft der Republik Usbekistan</name>
    <desc>Botschaft - OSM</desc>
    <sym>Embassy</sym>
  </wpt>
  <wpt lat="48.2078399" lon="16.1821589">
    <name>Konsulat von Nepal</name>
    <desc>Konsulat - OSM</desc>
    <sym>Embassy</sym>
  </wpt>
  <wpt lat="48.2378023" lon="16.3456944">
    <name>Wohnsitz der japanischen Botschaft</name>
    <desc>Botschaft - OSM</desc>
    <sym>Embassy</sym>
  </wpt>
  <wpt lat="48.2500176" lon="16.3519973">
    <name>Japanese Diplomatic Mission</name>
    <desc>Botschaft - OSM</desc>
    <sym>Embassy</sym>
  </wpt>
  <wpt lat="48.2493183" lon="16.3516886">
    <name>Botschaft des Königreichs Saudi-Arabien</name>
    <desc>Botschaft - OSM</desc>
    <sym>Embassy</sym>
  </wpt>
  <wpt lat="48.2416415" lon="16.2832155">
    <name>Zur chinesichen Botschaft gehörend</name>
    <desc>Botschaft - OSM</desc>
    <sym>Embassy</sym>
  </wpt>
  <wpt lat="48.1783538" lon="16.2978854">
    <name>Residenz des Botschafters der Vereinigten Staaten von Amerika</name>
    <desc>Botschaft - OSM</desc>
    <sym>Embassy</sym>
  </wpt>
  <wpt lat="48.1883101" lon="16.2899418">
    <name>Konsularabteilung der polnischen Botschaft</name>
    <desc>Konsulat - OSM</desc>
    <sym>Embassy</sym>
  </wpt>
  <wpt lat="48.1880572" lon="16.2929379">
    <name>Residenz des deutschen Botschafters</name>
    <desc>Botschaft - OSM</desc>
    <sym>Embassy</sym>
  </wpt>
  <wpt lat="48.1832723" lon="16.2921225">
    <name>Villa Blaimschein</name>
    <desc>Botschaft - OSM</desc>
    <sym>Embassy</sym>
  </wpt>
  <wpt lat="48.2103728" lon="16.1837042">
    <name>Botschaft der Russischen Föderation</name>
    <desc>Botschaft - OSM</desc>
    <sym>Embassy</sym>
  </wpt>
  <wpt lat="48.2498863" lon="16.2925463">
    <name>Botschaft der demokratischen Volksrepublik Laos</name>
    <desc>Botschaft - OSM</desc>
    <sym>Embassy</sym>
  </wpt>
  <wpt lat="48.2340404" lon="16.3119856">
    <name>Botschaft der Ukraine in Österreich</name>
    <desc>Botschaft - OSM</desc>
    <sym>Embassy</sym>
  </wpt>
  <wpt lat="48.2324758" lon="16.3312753">
    <name>Luxemburgische Botschaft</name>
    <desc>Botschaft - OSM</desc>
    <sym>Embassy</sym>
  </wpt>
  <wpt lat="48.2063143" lon="16.2557804">
    <name>Consulate of Cameroon</name>
    <desc>Konsulat - OSM</desc>
    <sym>Embassy</sym>
  </wpt>
  <wpt lat="48.1875958" lon="16.2896124">
    <name>Botschaft der Republik Polen</name>
    <desc>Botschaft - OSM</desc>
    <sym>Embassy</sym>
  </wpt>
  <wpt lat="48.1912096" lon="16.3120229">
    <name>Botschaft der Demokratischen Volksrepublik Korea</name>
    <desc>Botschaft - OSM</desc>
    <sym>Embassy</sym>
  </wpt>
  <wpt lat="48.2326081" lon="16.3308217">
    <name>Residenz des Botschafters/der Botschafterin des Großherzogtums Luxemburg</name>
    <desc>Botschaft - OSM</desc>
    <sym>Embassy</sym>
  </wpt>
  <wpt lat="48.2048136" lon="16.3087584">
    <name>Botschaft der Islamischen Republik von Afghanistan</name>
    <desc>Botschaft - OSM</desc>
    <sym>Embassy</sym>
  </wpt>
</gpx>
