{"type": "FeatureCollection", "features": [{"type": "Feature", "geometry": {"type": "LineString", "coordinates": [[10.0303616, 53.5760077], [10.0293677, 53.5757783], [10.0287012, 53.5763413], [10.0285253, 53.5764899], [10.0275472, 53.5773161], [10.0275541, 53.5773625], [10.0277159, 53.5774534], [10.0277339, 53.5776134], [10.0277517, 53.5776175], [10.0285182, 53.5777931], [10.0287635, 53.5775568], [10.0296074, 53.5767388], [10.0303616, 53.5760077]]}, "properties": {"id": 1538984557, "highway": "footway", "name": "", "surface": "paved", "foot": "", "length_m": 605.4951645440833}}, {"type": "Feature", "geometry": {"type": "LineString", "coordinates": [[10.0274212, 53.5937697], [10.0274411, 53.5938693], [10.027467, 53.5940251], [10.0274573, 53.5941203], [10.0273917, 53.5943039], [10.0273527, 53.5943657], [10.0271668, 53.5945624], [10.0270188, 53.5946511], [10.0268154, 53.5947397], [10.026513, 53.5948204], [10.0262176, 53.5948789], [10.0259174, 53.5949104], [10.0257067, 53.594909], [10.0255953, 53.5948889], [10.0253505, 53.5948445], [10.0251744, 53.5947953], [10.0249983, 53.5947279], [10.0246413, 53.5945028], [10.024231, 53.594148], [10.0238738, 53.5937358], [10.0238355, 53.5936792], [10.0237544, 53.5935593], [10.0237231, 53.5935131], [10.0236767, 53.5934228], [10.0235521, 53.5931904], [10.0234494, 53.5929475], [10.0233874, 53.5927966], [10.0233456, 53.5925911], [10.0233322, 53.5923132], [10.0233851, 53.5921486], [10.0236394, 53.5918772], [10.0237868, 53.59178], [10.023968, 53.5916966], [10.0240718, 53.5916538], [10.0242561, 53.591607]]}, "properties": {"id": 34115926, "highway": "footway", "name": "", "surface": "compacted", "foot": "yes", "length_m": 652.2128961430486}}, {"type": "Feature", "geometry": {"type": "LineString", "coordinates": [[10.0093345, 53.5781575], [10.0092222, 53.5781238], [10.0088285, 53.5779929], [10.0074031, 53.5775061], [10.0062088, 53.5770982], [10.0060067, 53.577044], [10.0058947, 53.5770237], [10.0057715, 53.5770064], [10.0056865, 53.5769973], [10.0056158, 53.5769889], [10.0054943, 53.5769808], [10.0053739, 53.5769821], [10.0052757, 53.5769834], [10.0051635, 53.5769926], [10.0050283, 53.5770078], [10.0048925, 53.5770322], [10.0047151, 53.5770736], [10.0045697, 53.5771205], [10.004387, 53.5771892], [10.0042709, 53.5772535], [10.0041158, 53.577363], [10.0040113, 53.5774497], [10.003945, 53.5775226], [10.0038605, 53.5776373], [10.0038162, 53.5777193], [10.0037894, 53.5778037], [10.0036934, 53.578214], [10.0036888, 53.5782337], [10.0035078, 53.5790235], [10.0033613, 53.5796765]]}, "properties": {"id": 410341333, "highway": "footway", "name": "", "surface": "compacted", "foot": "", "length_m": 655.6987684216842}}, {"type": "Feature", "geometry": {"type": "LineString", "coordinates": [[10.0201641, 53.5813146], [10.0203618, 53.5813234], [10.0210427, 53.5812347], [10.0221622, 53.5810864], [10.0224231, 53.5810512], [10.0225167, 53.5810386], [10.0226481, 53.581022], [10.022797, 53.5810032], [10.0229566, 53.5809831], [10.0235259, 53.5809116], [10.0241448, 53.5808301], [10.0242951, 53.5808104], [10.0246818, 53.58076], [10.0255695, 53.5806478], [10.0257432, 53.5806214], [10.0258473, 53.5805979], [10.0268544, 53.5804645], [10.0269576, 53.5804503], [10.027984, 53.5803316], [10.0285415, 53.5802634], [10.029754, 53.5801013], [10.0299993, 53.5800684], [10.0301896, 53.5800405]]}, "properties": {"id": 764145609, "highway": "footway", "name": "", "surface": "paving_stones", "foot": "", "length_m": 677.491017260084}}, {"type": "Feature", "geometry": {"type": "LineString", "coordinates": [[10.0033613, 53.5796765], [10.0032738, 53.5796095], [10.0032925, 53.5795177], [10.0033421, 53.5793262], [10.0034119, 53.5790462], [10.0034908, 53.5785997], [10.0035304, 53.5784643], [10.0035598, 53.5783946], [10.0035781, 53.5783487], [10.0035809, 53.5783116], [10.0035448, 53.5782729], [10.0035396, 53.5782359], [10.0035587, 53.5782156], [10.003598, 53.5782072], [10.0036344, 53.5780437], [10.0036431, 53.5779563], [10.0036605, 53.577891], [10.0036861, 53.5777953], [10.0037263, 53.5777091], [10.0038045, 53.577568], [10.0039064, 53.5774236], [10.0039937, 53.57734], [10.0040959, 53.5772589], [10.0041948, 53.5771989], [10.0042577, 53.5771719], [10.0044993, 53.5770682], [10.0048205, 53.5769766], [10.0050803, 53.5769395], [10.0053684, 53.576919], [10.005631, 53.576929], [10.0057609, 53.576934], [10.0060181, 53.5769704], [10.0061208, 53.5769949], [10.0062943, 53.5770471], [10.0068983, 53.5772567], [10.0072998, 53.5773886], [10.007497, 53.5774503], [10.0076555, 53.5774923], [10.0077578, 53.5775283], [10.0078904, 53.5775718], [10.008064, 53.5776421], [10.0081114, 53.5776557], [10.008729, 53.5778323], [10.0091338, 53.5779374], [10.0092063, 53.5779499], [10.0095661, 53.5779956]]}, "properties": {"id": 237742134, "highway": "footway", "name": "", "surface": "dirt", "foot": "", "length_m": 681.5521461251546}}, {"type": "Feature", "geometry": {"type": "LineString", "coordinates": [[10.0272292, 53.5898936], [10.0267207, 53.5899831], [10.025957, 53.5901125], [10.0254163, 53.5901539], [10.0249727, 53.5901711], [10.0244283, 53.5901922], [10.0242543, 53.5901981], [10.0236078, 53.5902197], [10.0228582, 53.5902815], [10.0228052, 53.5903321], [10.0228661, 53.5904089], [10.0232731, 53.5905526], [10.0238106, 53.59066], [10.0243575, 53.5906984], [10.0246542, 53.5906965], [10.024767, 53.5906957], [10.0251114, 53.5906748], [10.0252522, 53.5906662], [10.0255781, 53.5906338], [10.0272398, 53.5904687], [10.0282484, 53.5903685], [10.028142, 53.5899977], [10.0280726, 53.5897557]]}, "properties": {"id": 464328201, "highway": "footway", "name": "", "surface": "compacted", "foot": "", "length_m": 742.8800182769979}}, {"type": "Feature", "geometry": {"type": "LineString", "coordinates": [[9.998626, 53.5792007], [9.9986567, 53.579195], [9.9987211, 53.5791852], [9.9987765, 53.5791682], [9.9988788, 53.5791283], [9.9990051, 53.5790548], [9.9990791, 53.5789961], [9.9991787, 53.5789216], [9.9992832, 53.5788473], [9.9994553, 53.5787102], [9.9995304, 53.5786577], [9.9996191, 53.5785405], [9.9997686, 53.5783297], [10.0001022, 53.5778823], [10.0002021, 53.5777422], [10.0007027, 53.5769136], [10.0007792, 53.5767738], [10.0008541, 53.5766359], [10.0008127, 53.5765942], [10.0009591, 53.576361], [10.0011228, 53.5761253], [10.0012054, 53.5760142], [10.0015878, 53.5753823], [10.0018015, 53.5749147], [10.0018637, 53.5747619], [10.0019095, 53.5746308], [10.001911, 53.5745484], [10.0018819, 53.5744275], [10.0018614, 53.5743281], [10.0018622, 53.574171], [10.0019081, 53.5739315], [10.0020136, 53.573736], [10.0020377, 53.5736475], [10.0020872, 53.5735866], [10.0021688, 53.5735312], [10.0022281, 53.573508], [10.0022941, 53.5734848], [10.0023493, 53.573475], [10.0024058, 53.5734781], [10.0024538, 53.5733687], [10.0025352, 53.5730205]]}, "properties": {"id": 41376998, "highway": "footway", "name": "", "surface": "compacted", "foot": "", "length_m": 759.3619643153515}}, {"type": "Feature", "geometry": {"type": "LineString", "coordinates": [[10.0204284, 53.5814621], [10.0205794, 53.5814406], [10.0215404, 53.5813119], [10.0225322, 53.5811844], [10.0226907, 53.5811639], [10.0256056, 53.580782], [10.025756, 53.5807681], [10.0259659, 53.5807403], [10.0266667, 53.5806405], [10.0269134, 53.5806138], [10.027857, 53.5804876], [10.0304965, 53.5801458], [10.0310867, 53.5800667], [10.0317896, 53.5799694], [10.0318861, 53.5799742]]}, "properties": {"id": 764145608, "highway": "footway", "name": "", "surface": "paving_stones", "foot": "", "length_m": 774.5991105398099}}]}