{"type": "FeatureCollection", "features": [{"type": "Feature", "geometry": {"type": "LineString", "coordinates": [[10.0204284, 53.5814621], [10.0205794, 53.5814406], [10.0215404, 53.5813119], [10.0225322, 53.5811844], [10.0226907, 53.5811639], [10.0256056, 53.580782], [10.025756, 53.5807681], [10.0259659, 53.5807403], [10.0266667, 53.5806405], [10.0269134, 53.5806138], [10.027857, 53.5804876], [10.0304965, 53.5801458], [10.0310867, 53.5800667], [10.0317896, 53.5799694], [10.0318861, 53.5799742]]}, "properties": {"id": 764145608, "highway": "footway", "name": "", "surface": "paving_stones", "foot": "", "length_m": 774.5991105398099, "straightness": 0.9996}}, {"type": "Feature", "geometry": {"type": "LineString", "coordinates": [[10.0201641, 53.5813146], [10.0203618, 53.5813234], [10.0210427, 53.5812347], [10.0221622, 53.5810864], [10.0224231, 53.5810512], [10.0225167, 53.5810386], [10.0226481, 53.581022], [10.022797, 53.5810032], [10.0229566, 53.5809831], [10.0235259, 53.5809116], [10.0241448, 53.5808301], [10.0242951, 53.5808104], [10.0246818, 53.58076], [10.0255695, 53.5806478], [10.0257432, 53.5806214], [10.0258473, 53.5805979], [10.0268544, 53.5804645], [10.0269576, 53.5804503], [10.027984, 53.5803316], [10.0285415, 53.5802634], [10.029754, 53.5801013], [10.0299993, 53.5800684], [10.0301896, 53.5800405]]}, "properties": {"id": 764145609, "highway": "footway", "name": "", "surface": "paving_stones", "foot": "", "length_m": 677.491017260084, "straightness": 0.999}}, {"type": "Feature", "geometry": {"type": "LineString", "coordinates": [[9.998626, 53.5792007], [9.9986567, 53.579195], [9.9987211, 53.5791852], [9.9987765, 53.5791682], [9.9988788, 53.5791283], [9.9990051, 53.5790548], [9.9990791, 53.5789961], [9.9991787, 53.5789216], [9.9992832, 53.5788473], [9.9994553, 53.5787102], [9.9995304, 53.5786577], [9.9996191, 53.5785405], [9.9997686, 53.5783297], [10.0001022, 53.5778823], [10.0002021, 53.5777422], [10.0007027, 53.5769136], [10.0007792, 53.5767738], [10.0008541, 53.5766359], [10.0008127, 53.5765942], [10.0009591, 53.576361], [10.0011228, 53.5761253], [10.0012054, 53.5760142], [10.0015878, 53.5753823], [10.0018015, 53.5749147], [10.0018637, 53.5747619], [10.0019095, 53.5746308], [10.001911, 53.5745484], [10.0018819, 53.5744275], [10.0018614, 53.5743281], [10.0018622, 53.574171], [10.0019081, 53.5739315], [10.0020136, 53.573736], [10.0020377, 53.5736475], [10.0020872, 53.5735866], [10.0021688, 53.5735312], [10.0022281, 53.573508], [10.0022941, 53.5734848], [10.0023493, 53.573475], [10.0024058, 53.5734781], [10.0024538, 53.5733687], [10.0025352, 53.5730205]]}, "properties": {"id": 41376998, "highway": "footway", "name": "", "surface": "compacted", "foot": "", "length_m": 759.3619643153515, "straightness": 0.9667}}]}