{"type": "FeatureCollection", "features": [{"type": "Feature", "geometry": {"type": "LineString", "coordinates": [[8.68, 50.11], [8.7, 50.12], [8.72, 50.13]]}, "properties": {"name": "S1", "vehicle_type": "S-Bahn", "from": "Rödermark-Ober Roden", "to": "Wiesbaden Hbf", "color": "#009933"}}, {"type": "Feature", "geometry": {"type": "LineString", "coordinates": [[8.68, 50.11], [8.66, 50.1], [8.64, 50.09]]}, "properties": {"name": "S2", "vehicle_type": "S-Bahn", "from": "Niedernhausen", "to": "Dietzenbach", "color": "#009933"}}, {"type": "Feature", "geometry": {"type": "LineString", "coordinates": [[8.68, 50.11], [8.68, 50.1], [8.68, 50.09]]}, "properties": {"name": "S3", "vehicle_type": "S-Bahn", "from": "Bad Soden", "to": "Frankfurt Süd", "color": "#009933"}}, {"type": "Feature", "geometry": {"type": "LineString", "coordinates": [[8.68, 50.11], [8.67, 50.1], [8.66, 50.09]]}, "properties": {"name": "S4", "vehicle_type": "S-Bahn", "from": "Kronberg", "to": "Frankfurt Süd", "color": "#009933"}}, {"type": "Feature", "geometry": {"type": "LineString", "coordinates": [[8.68, 50.11], [8.69, 50.1], [8.7, 50.09]]}, "properties": {"name": "S5", "vehicle_type": "S-Bahn", "from": "Friedrichsdorf", "to": "Frankfurt Süd", "color": "#009933"}}, {"type": "Feature", "geometry": {"type": "LineString", "coordinates": [[8.68, 50.11], [8.65, 50.1], [8.62, 50.09]]}, "properties": {"name": "S6", "vehicle_type": "S-Bahn", "from": "Friedberg", "to": "Frankfurt Süd", "color": "#009933"}}, {"type": "Feature", "geometry": {"type": "LineString", "coordinates": [[8.68, 50.11], [8.69, 50.11], [8.7, 50.11], [8.71, 50.12], [8.72, 50.12]]}, "properties": {"name": "S7", "vehicle_type": "S-Bahn", "from": "Riedstadt-Goddelau", "to": "Frankfurt Hbf", "color": "#009933"}}, {"type": "Feature", "geometry": {"type": "LineString", "coordinates": [[8.68, 50.11], [8.69, 50.11], [8.7, 50.11], [8.71, 50.12], [8.72, 50.12], [8.73, 50.13], [8.74, 50.14], [8.75, 50.15], [8.76, 50.16], [8.77, 50.17], [8.78, 50.18], [8.79, 50.19], [8.8, 50.2], [8.81, 50.21], [8.82, 50.22], [8.83, 50.23], [8.84, 50.24], [8.85, 50.25], [8.86, 50.26], [8.87, 50.27], [8.88, 50.28], [8.89, 50.29], [8.9, 50.3], [8.91, 50.31], [8.92, 50.32], [8.93, 50.33], [8.94, 50.34], [8.95, 50.35], [8.96, 50.36], [8.97, 50.37], [8.98, 50.38], [8.99, 50.39], [9.0, 50.4], [9.01, 50.41], [9.02, 50.42], [9.03, 50.43], [9.04, 50.44]]}, "properties": {"name": "S8", "vehicle_type": "S-Bahn", "from": "Wiesbaden Hbf", "to": "Hanau Hbf", "color": "#009933"}}, {"type": "Feature", "geometry": {"type": "LineString", "coordinates": [[8.68, 50.11], [8.69, 50.11], [8.7, 50.11], [8.71, 50.12], [8.72, 50.12], [8.73, 50.13], [8.74, 50.14], [8.75, 50.15], [8.76, 50.16], [8.77, 50.17], [8.78, 50.18], [8.79, 50.19], [8.8, 50.2], [8.81, 50.21], [8.82, 50.22], [8.83, 50.23], [8.84, 50.24], [8.85, 50.25], [8.86, 50.26], [8.87, 50.27], [8.88, 50.28], [8.89, 50.29], [8.9, 50.3], [8.91, 50.31], [8.92, 50.32], [8.93, 50.33], [8.94, 50.34], [8.95, 50.35], [8.96, 50.36], [8.97, 50.37], [8.98, 50.38], [8.99, 50.39], [9.0, 50.4], [9.01, 50.41], [9.02, 50.42], [9.03, 50.43], [9.04, 50.44]]}, "properties": {"name": "S9", "vehicle_type": "S-Bahn", "from": "Wiesbaden Hbf", "to": "Hanau Hbf", "color": "#009933"}}, {"type": "Feature", "geometry": {"type": "LineString", "coordinates": [[8.68, 50.11], [8.68, 50.1], [8.68, 50.09]]}, "properties": {"name": "U1", "vehicle_type": "U-Bahn", "from": "Ginnheim", "to": "Frankfurt Süd", "color": "#E2001A"}}, {"type": "Feature", "geometry": {"type": "LineString", "coordinates": [[8.68, 50.11], [8.67, 50.1], [8.66, 50.09]]}, "properties": {"name": "U2", "vehicle_type": "U-Bahn", "from": "Bad Homburg-Gonzenheim", "to": "Frankfurt Süd", "color": "#E2001A"}}, {"type": "Feature", "geometry": {"type": "LineString", "coordinates": [[8.68, 50.11], [8.69, 50.1], [8.7, 50.09]]}, "properties": {"name": "U3", "vehicle_type": "U-Bahn", "from": "Hohemark", "to": "Frankfurt Süd", "color": "#E2001A"}}, {"type": "Feature", "geometry": {"type": "LineString", "coordinates": [[8.68, 50.11], [8.68, 50.1], [8.68, 50.09]]}, "properties": {"name": "U4", "vehicle_type": "U-Bahn", "from": "Bockenheimer Warte", "to": "Frankfurt Süd", "color": "#E2001A"}}, {"type": "Feature", "geometry": {"type": "LineString", "coordinates": [[8.68, 50.11], [8.68, 50.1], [8.68, 50.09]]}, "properties": {"name": "U5", "vehicle_type": "U-Bahn", "from": "Preungesheim", "to": "Frankfurt Süd", "color": "#E2001A"}}, {"type": "Feature", "geometry": {"type": "LineString", "coordinates": [[8.68, 50.11], [8.7, 50.12], [8.72, 50.13]]}, "properties": {"name": "U6", "vehicle_type": "U-Bahn", "from": "Heerstraße", "to": "Frankfurt Ost", "color": "#E2001A"}}, {"type": "Feature", "geometry": {"type": "LineString", "coordinates": [[8.68, 50.11], [8.7, 50.12], [8.72, 50.13]]}, "properties": {"name": "U7", "vehicle_type": "U-Bahn", "from": "Hausen", "to": "Frankfurt Ost", "color": "#E2001A"}}, {"type": "Feature", "geometry": {"type": "LineString", "coordinates": [[8.68, 50.11], [8.7, 50.12], [8.72, 50.13]]}, "properties": {"name": "U8", "vehicle_type": "U-Bahn", "from": "Riedberg", "to": "Frankfurt Ost", "color": "#E2001A"}}, {"type": "Feature", "geometry": {"type": "LineString", "coordinates": [[8.68, 50.11], [8.7, 50.12], [8.72, 50.13]]}, "properties": {"name": "U9", "vehicle_type": "U-Bahn", "from": "Ginnheim", "to": "Frankfurt Ost", "color": "#E2001A"}}, {"type": "Feature", "geometry": {"type": "LineString", "coordinates": [[8.64, 50.09], [8.65, 50.1], [8.66, 50.1], [8.67, 50.11], [8.68, 50.11]]}, "properties": {"name": "11", "vehicle_type": "Straßenbahn", "from": "Schwanheim", "to": "Frankfurt Hbf", "color": "#FF6600"}}, {"type": "Feature", "geometry": {"type": "LineString", "coordinates": [[8.64, 50.09], [8.65, 50.1], [8.66, 50.1], [8.67, 50.11], [8.68, 50.11]]}, "properties": {"name": "12", "vehicle_type": "Straßenbahn", "from": "Schwanheim", "to": "Frankfurt Hbf", "color": "#FF6600"}}, {"type": "Feature", "geometry": {"type": "LineString", "coordinates": [[8.68, 50.11], [8.67, 50.1], [8.66, 50.09]]}, "properties": {"name": "14", "vehicle_type": "Straßenbahn", "from": "Mühlburg", "to": "Frankfurt Hbf", "color": "#FF6600"}}, {"type": "Feature", "geometry": {"type": "LineString", "coordinates": [[8.68, 50.11], [8.69, 50.1], [8.7, 50.09]]}, "properties": {"name": "15", "vehicle_type": "Straßenbahn", "from": "Heddernheim", "to": "Frankfurt Hbf", "color": "#FF6600"}}, {"type": "Feature", "geometry": {"type": "LineString", "coordinates": [[8.68, 50.11], [8.68, 50.1], [8.68, 50.09]]}, "properties": {"name": "16", "vehicle_type": "Straßenbahn", "from": "Ginnheim", "to": "Frankfurt Hbf", "color": "#FF6600"}}, {"type": "Feature", "geometry": {"type": "LineString", "coordinates": [[8.68, 50.11], [8.68, 50.1], [8.68, 50.09]]}, "properties": {"name": "17", "vehicle_type": "Straßenbahn", "from": "Rebstockbad", "to": "Frankfurt Hbf", "color": "#FF6600"}}, {"type": "Feature", "geometry": {"type": "LineString", "coordinates": [[8.68, 50.11], [8.7, 50.12], [8.72, 50.13]]}, "properties": {"name": "18", "vehicle_type": "Straßenbahn", "from": "Seckbach", "to": "Frankfurt Hbf", "color": "#FF6600"}}, {"type": "Feature", "geometry": {"type": "LineString", "coordinates": [[8.68, 50.11], [8.7, 50.12], [8.72, 50.13]]}, "properties": {"name": "19", "vehicle_type": "Straßenbahn", "from": "Seckbach", "to": "Frankfurt Hbf", "color": "#FF6600"}}, {"type": "Feature", "geometry": {"type": "LineString", "coordinates": [[8.68, 50.11], [8.7, 50.12], [8.72, 50.13]]}, "properties": {"name": "20", "vehicle_type": "Straßenbahn", "from": "Seckbach", "to": "Frankfurt Hbf", "color": "#FF6600"}}, {"type": "Feature", "geometry": {"type": "LineString", "coordinates": [[8.68, 50.11], [8.7, 50.12], [8.72, 50.13]]}, "properties": {"name": "21", "vehicle_type": "Straßenbahn", "from": "Seckbach", "to": "Frankfurt Hbf", "color": "#FF6600"}}, {"type": "Feature", "geometry": {"type": "LineString", "coordinates": [[8.68, 50.11], [8.68, 50.1], [8.68, 50.09]]}, "properties": {"name": "30", "vehicle_type": "Bus", "from": "Frankfurt Hbf", "to": "Frankfurt Süd", "color": "#0066CC"}}, {"type": "Feature", "geometry": {"type": "LineString", "coordinates": [[8.68, 50.11], [8.7, 50.12], [8.72, 50.13]]}, "properties": {"name": "36", "vehicle_type": "Bus", "from": "Frankfurt Hbf", "to": "Frankfurt Ost", "color": "#0066CC"}}, {"type": "Feature", "geometry": {"type": "LineString", "coordinates": [[8.68, 50.11], [8.66, 50.1], [8.64, 50.09]]}, "properties": {"name": "46", "vehicle_type": "Bus", "from": "Frankfurt Hbf", "to": "Frankfurt West", "color": "#0066CC"}}, {"type": "Feature", "geometry": {"type": "LineString", "coordinates": [[8.68, 50.11], [8.68, 50.12], [8.68, 50.13]]}, "properties": {"name": "52", "vehicle_type": "Bus", "from": "Frankfurt Hbf", "to": "Frankfurt Nord", "color": "#0066CC"}}, {"type": "Feature", "geometry": {"type": "LineString", "coordinates": [[8.68, 50.11], [8.68, 50.1], [8.68, 50.09]]}, "properties": {"name": "64", "vehicle_type": "Bus", "from": "Frankfurt Hbf", "to": "Frankfurt Süd", "color": "#0066CC"}}, {"type": "Feature", "geometry": {"type": "LineString", "coordinates": [[8.68, 50.09], [8.67, 50.09], [8.66, 50.1]]}, "properties": {"name": "Fähre 1", "vehicle_type": "Fähre", "from": "Frankfurt Hbf", "to": "Frankfurt Süd", "color": "#0099FF"}}, {"type": "Feature", "geometry": {"type": "LineString", "coordinates": [[8.7, 50.12], [8.68, 50.11], [8.66, 50.1]]}, "properties": {"name": "Fähre 2", "vehicle_type": "Fähre", "from": "Frankfurt Ost", "to": "Frankfurt West", "color": "#0099FF"}}]}