{
"type": "FeatureCollection",
"name": "berlin_poi_hotspots",
"crs": { "type": "name", "properties": { "name": "urn:ogc:def:crs:OGC:1.3:CRS84" } },
"features": [
{ "type": "Feature", "properties": { "poi_anzahl": 12, "lat": 52.5438762, "lon": 13.4425662 }, "geometry": { "type": "Polygon", "coordinates": [ [ [ 13.443066199999953, 52.543376199999948 ], [ 13.443066199999953, 52.544376199999945 ], [ 13.442066199999953, 52.544376199999945 ], [ 13.442066199999953, 52.543376199999948 ], [ 13.443066199999953, 52.543376199999948 ] ] ] } },
{ "type": "Feature", "properties": { "poi_anzahl": 11, "lat": 52.5488762, "lon": 13.4535662 }, "geometry": { "type": "Polygon", "coordinates": [ [ [ 13.454066199999946, 52.548376199999936 ], [ 13.454066199999946, 52.549376199999934 ], [ 13.453066199999947, 52.549376199999934 ], [ 13.453066199999947, 52.548376199999936 ], [ 13.454066199999946, 52.548376199999936 ] ] ] } },
{ "type": "Feature", "properties": { "poi_anzahl": 10, "lat": 52.5408762, "lon": 13.4385662 }, "geometry": { "type": "Polygon", "coordinates": [ [ [ 13.439066199999955, 52.540376199999955 ], [ 13.439066199999955, 52.541376199999952 ], [ 13.438066199999955, 52.541376199999952 ], [ 13.438066199999955, 52.540376199999955 ], [ 13.439066199999955, 52.540376199999955 ] ] ] } },
{ "type": "Feature", "properties": { "poi_anzahl": 9, "lat": 52.58687619999985, "lon": 13.3675662 }, "geometry": { "type": "Polygon", "coordinates": [ [ [ 13.3680662, 52.586376199999847 ], [ 13.3680662, 52.587376199999845 ], [ 13.3670662, 52.587376199999845 ], [ 13.3670662, 52.586376199999847 ], [ 13.3680662, 52.586376199999847 ] ] ] } },
{ "type": "Feature", "properties": { "poi_anzahl": 9, "lat": 52.570876199999887, "lon": 13.4105662 }, "geometry": { "type": "Polygon", "coordinates": [ [ [ 13.41106619999997, 52.570376199999885 ], [ 13.41106619999997, 52.571376199999882 ], [ 13.410066199999971, 52.571376199999882 ], [ 13.410066199999971, 52.570376199999885 ], [ 13.41106619999997, 52.570376199999885 ] ] ] } },
{ "type": "Feature", "properties": { "poi_anzahl": 9, "lat": 52.634876199999731, "lon": 13.4955662 }, "geometry": { "type": "Polygon", "coordinates": [ [ [ 13.496066199999923, 52.634376199999735 ], [ 13.496066199999923, 52.635376199999733 ], [ 13.495066199999924, 52.635376199999733 ], [ 13.495066199999924, 52.634376199999735 ], [ 13.496066199999923, 52.634376199999735 ] ] ] } },
{ "type": "Feature", "properties": { "poi_anzahl": 8, "lat": 52.5378762, "lon": 13.4085662 }, "geometry": { "type": "Polygon", "coordinates": [ [ [ 13.409066199999971, 52.537376199999962 ], [ 13.409066199999971, 52.538376199999959 ], [ 13.408066199999972, 52.538376199999959 ], [ 13.408066199999972, 52.537376199999962 ], [ 13.409066199999971, 52.537376199999962 ] ] ] } },
{ "type": "Feature", "properties": { "poi_anzahl": 8, "lat": 52.5488762, "lon": 13.4135662 }, "geometry": { "type": "Polygon", "coordinates": [ [ [ 13.414066199999969, 52.548376199999936 ], [ 13.414066199999969, 52.549376199999934 ], [ 13.413066199999969, 52.549376199999934 ], [ 13.413066199999969, 52.548376199999936 ], [ 13.414066199999969, 52.548376199999936 ] ] ] } },
{ "type": "Feature", "properties": { "poi_anzahl": 8, "lat": 52.5498762, "lon": 13.4565662 }, "geometry": { "type": "Polygon", "coordinates": [ [ [ 13.457066199999945, 52.549376199999934 ], [ 13.457066199999945, 52.550376199999931 ], [ 13.456066199999945, 52.550376199999931 ], [ 13.456066199999945, 52.549376199999934 ], [ 13.457066199999945, 52.549376199999934 ] ] ] } },
{ "type": "Feature", "properties": { "poi_anzahl": 7, "lat": 52.569876199999875, "lon": 13.4065662 }, "geometry": { "type": "Polygon", "coordinates": [ [ [ 13.407066199999973, 52.569376199999887 ], [ 13.407066199999973, 52.570376199999885 ], [ 13.406066199999973, 52.570376199999885 ], [ 13.406066199999973, 52.569376199999887 ], [ 13.407066199999973, 52.569376199999887 ] ] ] } },
{ "type": "Feature", "properties": { "poi_anzahl": 7, "lat": 52.571876199999878, "lon": 13.4085662 }, "geometry": { "type": "Polygon", "coordinates": [ [ [ 13.409066199999971, 52.571376199999882 ], [ 13.409066199999971, 52.57237619999988 ], [ 13.408066199999972, 52.57237619999988 ], [ 13.408066199999972, 52.571376199999882 ], [ 13.409066199999971, 52.571376199999882 ] ] ] } },
{ "type": "Feature", "properties": { "poi_anzahl": 7, "lat": 52.570876199999887, "lon": 13.4095662 }, "geometry": { "type": "Polygon", "coordinates": [ [ [ 13.410066199999971, 52.570376199999885 ], [ 13.410066199999971, 52.571376199999882 ], [ 13.409066199999971, 52.571376199999882 ], [ 13.409066199999971, 52.570376199999885 ], [ 13.410066199999971, 52.570376199999885 ] ] ] } },
{ "type": "Feature", "properties": { "poi_anzahl": 7, "lat": 52.5588762, "lon": 13.4135662 }, "geometry": { "type": "Polygon", "coordinates": [ [ [ 13.414066199999969, 52.558376199999913 ], [ 13.414066199999969, 52.55937619999991 ], [ 13.413066199999969, 52.55937619999991 ], [ 13.413066199999969, 52.558376199999913 ], [ 13.414066199999969, 52.558376199999913 ] ] ] } },
{ "type": "Feature", "properties": { "poi_anzahl": 7, "lat": 52.5498762, "lon": 13.4145662 }, "geometry": { "type": "Polygon", "coordinates": [ [ [ 13.415066199999968, 52.549376199999934 ], [ 13.415066199999968, 52.550376199999931 ], [ 13.414066199999969, 52.550376199999931 ], [ 13.414066199999969, 52.549376199999934 ], [ 13.415066199999968, 52.549376199999934 ] ] ] } },
{ "type": "Feature", "properties": { "poi_anzahl": 7, "lat": 52.5498762, "lon": 13.4165662 }, "geometry": { "type": "Polygon", "coordinates": [ [ [ 13.417066199999967, 52.549376199999934 ], [ 13.417066199999967, 52.550376199999931 ], [ 13.416066199999968, 52.550376199999931 ], [ 13.416066199999968, 52.549376199999934 ], [ 13.417066199999967, 52.549376199999934 ] ] ] } },
{ "type": "Feature", "properties": { "poi_anzahl": 7, "lat": 52.5488762, "lon": 13.4505662 }, "geometry": { "type": "Polygon", "coordinates": [ [ [ 13.451066199999948, 52.548376199999936 ], [ 13.451066199999948, 52.549376199999934 ], [ 13.450066199999949, 52.549376199999934 ], [ 13.450066199999949, 52.548376199999936 ], [ 13.451066199999948, 52.548376199999936 ] ] ] } },
{ "type": "Feature", "properties": { "poi_anzahl": 6, "lat": 52.568876199999885, "lon": 13.4015662 }, "geometry": { "type": "Polygon", "coordinates": [ [ [ 13.402066199999975, 52.568376199999889 ], [ 13.402066199999975, 52.569376199999887 ], [ 13.401066199999976, 52.569376199999887 ], [ 13.401066199999976, 52.568376199999889 ], [ 13.402066199999975, 52.568376199999889 ] ] ] } },
{ "type": "Feature", "properties": { "poi_anzahl": 6, "lat": 52.570876199999887, "lon": 13.4075662 }, "geometry": { "type": "Polygon", "coordinates": [ [ [ 13.408066199999972, 52.570376199999885 ], [ 13.408066199999972, 52.571376199999882 ], [ 13.407066199999973, 52.571376199999882 ], [ 13.407066199999973, 52.570376199999885 ], [ 13.408066199999972, 52.570376199999885 ] ] ] } },
{ "type": "Feature", "properties": { "poi_anzahl": 6, "lat": 52.5468762, "lon": 13.4125662 }, "geometry": { "type": "Polygon", "coordinates": [ [ [ 13.413066199999969, 52.546376199999941 ], [ 13.413066199999969, 52.547376199999938 ], [ 13.41206619999997, 52.547376199999938 ], [ 13.41206619999997, 52.546376199999941 ], [ 13.413066199999969, 52.546376199999941 ] ] ] } },
{ "type": "Feature", "properties": { "poi_anzahl": 6, "lat": 52.5478762, "lon": 13.4135662 }, "geometry": { "type": "Polygon", "coordinates": [ [ [ 13.414066199999969, 52.547376199999938 ], [ 13.414066199999969, 52.548376199999936 ], [ 13.413066199999969, 52.548376199999936 ], [ 13.413066199999969, 52.547376199999938 ], [ 13.414066199999969, 52.547376199999938 ] ] ] } }
]
}
